_IDOBJ;NOM_COMPLET;THEME;LIBTHEME;CATEGORIE;LIBCATEGORIE;TYPE;LIBTYPE;STATUT;COMMUNE;ADRESSE;TELEPHONE;WEB;CODE_POSTAL;location
1884;Collège Anne de Bretagne;5;ENSEIGNEMENT;504;Collège;;;Public;ST-HERBLAIN;36 Allée de la Bourgonnière;02 28 06 12 01;abretagne.loire-atlantique.e-lyco.fr;44800;[ 47.2065481348141 , -1.65675534041593]
1886;Collège Ernest Renan;5;ENSEIGNEMENT;504;Collège;;;Public;ST-HERBLAIN;10 Rue de la Mayenne;02 51 80 24 80;www.saint-herblain.fr;44800;[ 47.2148177368001 , -1.61366775627961]
1887;Maternelle Les Grands Bois;5;ENSEIGNEMENT;501;Maternelle;;;Public;ST-HERBLAIN;9 Avenue des Grands Bois;02 40 59 20 41;www.saint-herblain.fr;44800;[ 47.2334455546803 , -1.59151832566657]
1889;Maternelle Joli Mai;5;ENSEIGNEMENT;501;Maternelle;;;Public;ST-HERBLAIN;66 Avenue de Cheverny;02 40 76 02 38;www.saint-herblain.fr;44800;[ 47.2434386691832 , -1.60082853359539]
1890;Maternelle La Rabotière;5;ENSEIGNEMENT;501;Maternelle;;;Public;ST-HERBLAIN;4 Rue de Saint Servan;02 40 43 19 98;www.saint-herblain.fr;44800;[ 47.2151374203316 , -1.61615784341451]
1891;Maternelle La Sensive;5;ENSEIGNEMENT;501;Maternelle;;;Public;ST-HERBLAIN;Rue du Cantal;02 40 43 73 49;www.saint-herblain.fr;44800;[ 47.2101449793309 , -1.61282774087622]
1892;Elémentaire Soleil Levant;5;ENSEIGNEMENT;502;Elémentaire;;;Public;ST-HERBLAIN;38 Rue de la Blanche;02 40 58 27 93;www.saint-herblain.fr;44800;[ 47.2202720536467 , -1.61152088816877]
1893;Maternelle Beauregard;5;ENSEIGNEMENT;501;Maternelle;;;Public;ST-HERBLAIN;22 Avenue de Beauregard;02 40 38 33 15;www.saint-herblain.fr;44800;[ 47.2118797431333 , -1.65923842717032]
1894;Maternelle Bernardière;5;ENSEIGNEMENT;501;Maternelle;;;Public;ST-HERBLAIN;5 Rue de la Lozère;02 40 95 08 02;www.saint-herblain.fr;44800;[ 47.2064279646083 , -1.61676401065924]
1895;Maternelle Jacqueline Auriol;5;ENSEIGNEMENT;501;Maternelle;;;Public;ST-HERBLAIN;33 Rue des Calvaires;02 40 86 25 30;www.saint-herblain.fr;44800;[ 47.2124055875758 , -1.65054907706365]
1896;Elémentaire Les Buzardières;5;ENSEIGNEMENT;502;Elémentaire;;;Public;ST-HERBLAIN;21 Rue des Buzardières;02 40 38 30 51;www.saint-herblain.fr;44800;[ 47.2088514232617 , -1.66030960835991]
1897;Maternelle Condorcet;5;ENSEIGNEMENT;501;Maternelle;;;Public;ST-HERBLAIN;9 Rue de Tillay;02 51 80 71 89;www.saint-herblain.fr;44800;[ 47.2308043526394 , -1.60570785327337]
1898;Maternelle Crémetterie;5;ENSEIGNEMENT;501;Maternelle;;;Public;ST-HERBLAIN;15 Rue de l'Ecole;02 40 43 93 03;www.saint-herblain.fr;44800;[ 47.2157685273769 , -1.60848168577711]
1902;GRETA  Batiment et Travaux Publics;5;ENSEIGNEMENT;507;Centre de formation;;;Non Renseigné;ST-HERBLAIN;30 Rue de la Dutée;02 40 92 99 99;www.Greta.ac-nantes.fr;44800;[ 47.2270239991639 , -1.64562426922102]
1904;Centre de Formation de Recherche Educative Sociale;5;ENSEIGNEMENT;507;Centre de formation;;;Privé;ST-HERBLAIN;Avenue des Thébaudières;02 40 63 82 44;www.ffp.org/ffp_annu/pages/organism/cefres.html;44800;[ 47.2443468878093 , -1.60802253250199]
1905;Centre de Formation des Apprentis du Batiment et TP;5;ENSEIGNEMENT;507;Centre de formation;;;Non Renseigné;ST-HERBLAIN;Rue du Rémouleur;02 40 92 17 54;;44800;[ 47.2208058502725 , -1.65336489698453]
1907;Lycée Privé Technique Jeanne Bernard;5;ENSEIGNEMENT;505;Lycée;;;Privé;ST-HERBLAIN;48 Avenue de la Baraudière;02 40 76 40 97;;44800;[ 47.235981378873 , -1.59209450876761]
1908;Association Nationale de Formation Professionnelle Adultes;5;ENSEIGNEMENT;507;Centre de formation;;;Non Renseigné;ST-HERBLAIN;23 Rue de la Rivaudière;02 40 38 14 00;www.afpa.fr;44800;[ 47.2240751140697 , -1.65179116337335]
1935;Maternelle Le Vieux Chêne;5;ENSEIGNEMENT;501;Maternelle;;;Public;ORVAULT;14 Rue du Raffuneau;02 28 01 11 56;;44700;[ 47.2732710322814 , -1.62453483848858]
1936;Elémentaire Le Vieux Chêne;5;ENSEIGNEMENT;502;Elémentaire;;;Public;ORVAULT;14 Rue du Raffuneau;02 28 01 11 55;;44700;[ 47.2727241557227 , -1.62464677172845]
1937;Maternelle Salentine;5;ENSEIGNEMENT;501;Maternelle;;;Public;ORVAULT;Allée des Tilleuls;02 28 07 45 51;www.orvault.fr;44700;[ 47.2502969448552 , -1.60396408939999]
1938;Elémentaire Salentine;5;ENSEIGNEMENT;502;Elémentaire;;;Public;ORVAULT;Allée des Tilleuls;02 28 07 49 54;www.orvault.fr;44700;[ 47.250198612164 , -1.60467248058559]
1939;Maternelle Ferrière;5;ENSEIGNEMENT;501;Maternelle;;;Public;ORVAULT;60 Avenue de la Ferrière;02 40 40 28 56;www.orvault.fr;44700;[ 47.2450325424864 , -1.5910501482815]
1940;Elémentaire Ferrière;5;ENSEIGNEMENT;502;Elémentaire;;;Public;ORVAULT;6 Avenue de la Jeunesse;02 40 76 88 13;www.orvault.fr;44700;[ 47.2456384287708 , -1.59091819232957]
1942;Primaire Emile Gibier;5;ENSEIGNEMENT;503;Primaire;;;Public;ORVAULT;6 Rue des Pins;02 28 01 11 85;emile-gibier.ecole.pagespro-orange.fr;44700;[ 47.253604378379 , -1.59572253481678]
1943;Maternelle Pont Marchand;5;ENSEIGNEMENT;501;Maternelle;;;Public;ORVAULT;26 Rue du Pont Marchand;02 28 07 49 11;www.orvault.fr;44700;[ 47.2634330362147 , -1.63185091680704]
1944;Elémentaire Bois-Raguenet;5;ENSEIGNEMENT;502;Elémentaire;;;Public;ORVAULT;18 Avenue du Couchant;02 28 07 49 84;www.orvault.fr;44700;[ 47.2696443198266 , -1.59858628870202]
1945;Maternelle Bois-Raguenet;5;ENSEIGNEMENT;501;Maternelle;;;Public;ORVAULT;18 Avenue du Couchant;02 28 07 49 83;www.orvault.fr;44700;[ 47.2693638544989 , -1.59910620367067]
1946;Elementaire Bois-Saint-Louis;5;ENSEIGNEMENT;502;Elémentaire;;;Public;ORVAULT;18 Rue des Lilas;02 40 76 73 42;www.orvault.fr;44700;[ 47.2464223001285 , -1.58246682006158]
1947;Maternelle Bois-Saint-Louis;5;ENSEIGNEMENT;501;Maternelle;;;Public;ORVAULT;18 Rue des Lilas;02 40 76 02 74;www.orvault.fr;44700;[ 47.2457278705104 , -1.58249860686947]
1950;Collège Jean Rostand;5;ENSEIGNEMENT;504;Collège;;;Public;ORVAULT;8 Avenue de la Jeunesse;02 40 76 60 16;www.orvault.fr;44700;[ 47.2464145473655 , -1.59288040505081]
1951;Lycée des Métiers Nicolas Appert;5;ENSEIGNEMENT;505;Lycée;;;Public;ORVAULT;24 Avenue de la Cholière;02 51 78 22 00;www.appert.e-lyco.fr;44700;[ 47.2522262549577 , -1.60910901066559]
1994;Maternelle Ecole du Centre;5;ENSEIGNEMENT;501;Maternelle;;;Public;ST-SEBASTIEN;Rue du Huit Mai 1945;02 40 80 73 33;www.saintsebastien.fr;44230;[ 47.2066285379681 , -1.50325651544284]
1995;Maternelle du Douet;5;ENSEIGNEMENT;501;Maternelle;;;Public;ST-SEBASTIEN;10 Rue Edouard Hervé;02 40 03 09 93;;44230;[ 47.1911530213821 , -1.51939079026588]
1996;Maternelle Marie Curie;5;ENSEIGNEMENT;501;Maternelle;;;Public;ST-SEBASTIEN;Rue du Bois Praud;02 40 03 32 28;;44230;[ 47.1982259221372 , -1.52532240803209]
1997;Maternelle Jean de La Fontaine;5;ENSEIGNEMENT;501;Maternelle;;;Public;ST-SEBASTIEN;Rue de la Pyramide;02 40 34 36 01;;44230;[ 47.2069539979912 , -1.49122247865218]
1998;Maternelle La Profondine;5;ENSEIGNEMENT;501;Maternelle;;;Public;ST-SEBASTIEN;Rue de l'Allée Verte;02 40 03 03 39;www.saintsebastien.fr;44230;[ 47.1947859263858 , -1.4889877731927]
2002;Elémentaire Théodore Monod;5;ENSEIGNEMENT;502;Elémentaire;;;Public;ST-SEBASTIEN;6 Rue du Huit Mai 1945;02 40 80 79 98;www.saintsebastien.fr;44230;[ 47.2071690974453 , -1.50295417256493]
2003;Elémentaire Le Douet;5;ENSEIGNEMENT;502;Elémentaire;;;Public;ST-SEBASTIEN;10B Rue Edouard Hervé;02 40 03 28 16;;44230;[ 47.1912688851604 , -1.51995209414919]
2004;Elémentaire Marie Curie;5;ENSEIGNEMENT;502;Elémentaire;;;Public;ST-SEBASTIEN;Rue du Bois Praud;02 40 03 35 34;;44230;[ 47.1986322155639 , -1.52611778071304]
2005;Elémentaire Jean de La Fontaine;5;ENSEIGNEMENT;502;Elémentaire;;;Public;ST-SEBASTIEN;Rue de la Pyramide;02 40 34 79 22;;44230;[ 47.2069736014544 , -1.49089254548434]
2006;Elémentaire La Profondine;5;ENSEIGNEMENT;502;Elémentaire;;;Public;ST-SEBASTIEN;Rue de l'Allée Verte;02 40 03 06 67;www.saintsebastien.fr;44230;[ 47.1953489370861 , -1.48886799399421]
2008;Maternelle Elémentaire Sainte Thérèse;5;ENSEIGNEMENT;503;Primaire;;;Privé;ST-SEBASTIEN;15 Rue Jean Baptiste Robert;02 40 80 56 73;;44230;[ 47.2092431587214 , -1.50580454379318]
2009;Maternelle Elémentaire Sainte Bernadette;5;ENSEIGNEMENT;503;Primaire;;;Privé;ST-SEBASTIEN;3 Rue Robert Douineau;02 40 34 54 75;;44230;[ 47.1926949467797 , -1.517970053166]
2010;Collège Renè Bernier;5;ENSEIGNEMENT;504;Collège;;;Public;ST-SEBASTIEN;Rue de l'Ouche Quinet;02 40 03 07 70;;44230;[ 47.1931199770458 , -1.50131406349492]
2011;Collège Iles de Loire;5;ENSEIGNEMENT;504;Collège;;;Public;ST-SEBASTIEN;1 Avenue de Glinde;02 40 80 56 26;;44230;[ 47.2103280797455 , -1.48892541528928]
2012;Lycée Professionnel les Savarières;5;ENSEIGNEMENT;505;Lycée;;;Public;ST-SEBASTIEN;5 Avenue de Glinde;02 40 80 54 84;;44230;[ 47.2091583288446 , -1.48850173943206]
2013;Lycée Privé Professionnel La Baugerie;5;ENSEIGNEMENT;505;Lycée;;;Privé;ST-SEBASTIEN;Boulevard des Pas Enchantés;02 40 80 66 95;;44230;[ 47.2057563052032 , -1.51894771342441]
2014;Lycée Privé Technique Tertiaire Saint Pierre La Joliverie;5;ENSEIGNEMENT;505;Lycée;;;Privé;ST-SEBASTIEN;141B Route de Clisson;02 40 80 82 00;;44230;[ 47.1913570612988 , -1.5150461688086]
2015;Lycee Prive Technique Industriel Saint Joseph La Joliverie;5;ENSEIGNEMENT;505;Lycée;;;Privé;ST-SEBASTIEN;141B Route de Clisson;02 40 80 25 80;;44230;[ 47.1907791123497 , -1.51681565156896]
2016;Institut Régional de Formation aux Métiers de Rééducation et Réadaptation des Pa;5;ENSEIGNEMENT;507;Centre de formation;;;Non Renseigné;ST-SEBASTIEN;54 Rue de la Baugerie;02 51 79 09 79;www.ifm3r.fr;44230;[ 47.2050039165131 , -1.51429731561778]
2048;Centre de Formation d'Apprentis La Joliverie;5;ENSEIGNEMENT;507;Centre de formation;;;Non Renseigné;ST-SEBASTIEN;141B Route de Clisson;02 51 71 36 20;www.la-joliverie.com;44230;[ 47.1906461799119 , -1.51679392717183]
2071;Maternelle Celestin Freinet;5;ENSEIGNEMENT;501;Maternelle;;;Public;BOUGUENAIS;Rue Célestin Freinet;02 40 65 10 13;www.ville-bouguenais.fr;44340;[ 47.1817412975978 , -1.58907522516069]
2072;Maternelle Chateaubriand;5;ENSEIGNEMENT;501;Maternelle;;;Public;BOUGUENAIS;29 Avenue du Général De Gaulle;02 40 65 12 36;www.ville-bouguenais.fr;44340;[ 47.1782690798528 , -1.61949542420508]
2073;Maternelle  La Croix Jeannette;5;ENSEIGNEMENT;501;Maternelle;;;Public;BOUGUENAIS;Place de la Croix Jeannette;02 40 65 05 83;www.ville-bouguenais.fr;44340;[ 47.1725184104664 , -1.62054099482354]
2074;Maternelle Francoise Dolto;5;ENSEIGNEMENT;501;Maternelle;;;Public;BOUGUENAIS;Rue du Dix Neuf Mars 1962;02 40 65 21 69;www.ville-bouguenais.fr;44340;[ 47.178709306967 , -1.59012243534787]
2075;Maternelle Fougan-de-Mer;5;ENSEIGNEMENT;501;Maternelle;;;Public;BOUGUENAIS;1 Rue du Commandant Charcot;02 40 65 02 24;www.ville-bouguenais.fr;44340;[ 47.1831691298422 , -1.57846891796627]
2076;Elémentaire Jean Zay;5;ENSEIGNEMENT;502;Elémentaire;;;Public;BOUGUENAIS;Chemin Paul Eluard;02 40 65 24 88;www.ville-bouguenais.fr;44340;[ 47.1730106111394 , -1.62584492444083]
2077;Elémentaire Chateaubriand;5;ENSEIGNEMENT;502;Elémentaire;;;Public;BOUGUENAIS;2 Rue de la Commune de Paris 1871;02 40 65 12 45;www.ville-bouguenais.fr;44340;[ 47.1786531370074 , -1.61872205422499]
2078;Ecole Saint-Pierre;5;ENSEIGNEMENT;503;Primaire;;;Privé;BOUGUENAIS;Chemin de la Pierre Levée;02 40 32 02 27;www.ville-bouguenais.fr;44340;[ 47.1769157881541 , -1.62238290384652]
2079;Collège de La Neustrie;5;ENSEIGNEMENT;504;Collège;;;Public;BOUGUENAIS;14 Rue de la Neustrie;02 40 65 10 04;www.ville-bouguenais.fr;44340;[ 47.1757558233213 , -1.590715855972]
2080;Elémentaire Fougan-de-Mer;5;ENSEIGNEMENT;502;Elémentaire;;;Public;BOUGUENAIS;Rue Louise Michel;02 40 65 15 87;www.ville-bouguenais.fr;44340;[ 47.1827361435511 , -1.57910283774046]
2082;Elémentaire Urbain le Verrier;5;ENSEIGNEMENT;502;Elémentaire;;;Public;BOUGUENAIS;Rue Urbain Le Verrier;02 40 65 17 78;www.ville-bouguenais.fr;44340;[ 47.1787759137966 , -1.58924909574304]
2084;Lycée Professionnel Pablo Néruda;5;ENSEIGNEMENT;505;Lycée;;;Public;BOUGUENAIS;Square Pablo Neruda;02 40 32 02 49;pablo-neruda.paysdelaloire.e-lyco.fr;44340;[ 47.1713327085739 , -1.62287559502891]
2085;Lycée Professionnel Hôtelier Privé Daniel Brottier;5;ENSEIGNEMENT;505;Lycée;;;Privé;BOUGUENAIS;Chemin du Couvent;02 40 65 29 90;www.ville-bouguenais.fr;44340;[ 47.1868719345651 , -1.5856762964421]
2115;Primaire Saint-Joseph;5;ENSEIGNEMENT;503;Primaire;;;Privé;ORVAULT;25 Rue Hubert De la Brosse;02 40 63 10 86;www.ecolesaintjosephorvault.fr;44700;[ 47.2719384865437 , -1.61986088010164]
2116;Centre de Formation d'Apprentis Horticoles Jules Rieffel;5;ENSEIGNEMENT;507;Centre de formation;;;Non Renseigné;ST-HERBLAIN;Rue de la Syonnière;02 40 94 86 08;;44800;[ 47.2525536233127 , -1.6417964812005]
2135;Lycee Agricole Jules Rieffel;5;ENSEIGNEMENT;505;Lycée;;;Public;ST-HERBLAIN;5 Rue de la Syonnière;02 40 94 99 30;;44800;[ 47.2528460254792 , -1.64145615456461]
2139;Maternelle Elémentaire Sainte Anne;5;ENSEIGNEMENT;503;Primaire;;;Privé;INDRE;2 Place du Prieuré;02 40 38 07 32;;44610;[ 47.1988074268817 , -1.67100443696323]
2145;Centre de Formation Compagnonique;5;ENSEIGNEMENT;507;Centre de formation;;;Non Renseigné;ST-SEBASTIEN;238 Rue de la Pyramide;02 51 79 13 20;;44230;[ 47.1976932112479 , -1.48365899332727]
2210;Lycee Saint Dominique;5;ENSEIGNEMENT;505;Lycée;;;Privé;ST-HERBLAIN;103B Avenue de Cheverny;02 28 01 72 72;www.saint-herblain.fr;44800;[ 47.2428986607392 , -1.60406253592319]
2211;Collège Saint Dominique;5;ENSEIGNEMENT;504;Collège;;;Privé;ST-HERBLAIN;103B Avenue de Cheverny;02 28 01 72 72;www.saint-herblain.fr;44800;[ 47.242990037061 , -1.60457252626437]
2212;Primaire Saint Dominique;5;ENSEIGNEMENT;503;Primaire;;;Privé;ST-HERBLAIN;103B Avenue de Cheverny;02 28 01 72 72;www.saint-herblain.fr;44800;[ 47.2432599359208 , -1.60526153160114]
2221;Maternelle René Guy Cadou;5;ENSEIGNEMENT;501;Maternelle;;;Public;ST-HERBLAIN;2 Rue du Bois de Lagland;02 40 63 14 35;www.saint-herblain.fr;44800;[ 47.233694341537 , -1.63201866962857]
2237;Elémentaire Saint Hermeland;5;ENSEIGNEMENT;502;Elémentaire;;;Privé;ST-HERBLAIN;20 Rue des Calvaires;02 40 86 59 16;www.saint-herblain.fr;44800;[ 47.2138458710052 , -1.64992903608882]
2239;Primaire Sainte-Marie;5;ENSEIGNEMENT;503;Primaire;;;Privé;ST-HERBLAIN;7 Place de l'Abbé Cherel;02 40 86 16 28;www.saint-herblain.fr;44800;[ 47.2101609398005 , -1.65107809506592]
2276;Centre de Formation Recherche Educative Sociale Restaurant d'Application;5;ENSEIGNEMENT;507;Centre de formation;;;Privé;NANTES;68 Rue de la Haluchère;02 40 93 23 34;;44300;[ 47.2465655927305 , -1.51542101160623]
2291;Centre de Formation Recherche Educative Sociale Atelier - Est;5;ENSEIGNEMENT;507;Centre de formation;;;Privé;NANTES;4 Route de Sainte Luce;02 40 49 11 02;;44300;[ 47.2285793740862 , -1.52580633313846]
2292;CEFRES atelier - Beaulieu;5;ENSEIGNEMENT;507;Centre de formation;;;Privé;NANTES;22 Rue la Tour d'Auvergne;02 40 48 24 47;;44200;[ 47.2066735793639 , -1.5561552526668]
2293;Institut Départemental Jeunes Sourds Persagotière;5;ENSEIGNEMENT;507;Centre de formation;;;Non Renseigné;NANTES;2 Rue René Dunan;02 40 75 63 15;;44200;[ 47.1929379658582 , -1.53835049865576]
2578;Centre de Formation Chambre de Métiers;5;ENSEIGNEMENT;507;Centre de formation;;;Non Renseigné;SAINTE-LUCE-SUR-LOIRE;1 Place Jacques Chesné;02 40 18 96 96;;44980;[ 47.2636611203558 , -1.48930919681705]
2594;Centre de Formation Transport et Logistique;5;ENSEIGNEMENT;507;Centre de formation;;;Non Renseigné;SAINTE-LUCE-SUR-LOIRE;2 Rue Jean Mermoz;02 40 18 13 13;;44980;[ 47.2744702372609 , -1.46568715371661]
2749;Primaire Grand Carcouët;5;ENSEIGNEMENT;503;Primaire;;;Public;NANTES;7 Rue Louis Brisset;02 40 76 09 46;;44100;[ 47.22866262955 , -1.59327461656984]
2750;Primaire Longchamp;5;ENSEIGNEMENT;503;Primaire;;;Public;NANTES;6 Rue du Vélodrome de Longchamp;02 40 76 50 11;http;44300;[ 47.2389165059771 , -1.57310031397667]
2801;Collège de Goulaine;5;ENSEIGNEMENT;504;Collège;;;Public;BASSE-GOULAINE;Rue du Général Leclerc;02 40 03 51 82;;44115;[ 47.2178055474132 , -1.46275105041326]
2802;Maternelle de la Champagnère;5;ENSEIGNEMENT;501;Maternelle;;;Public;BASSE-GOULAINE;Rue de la Champagnère;02 40 06 01 39;;44115;[ 47.2100262832455 , -1.46491030262381]
2804;Maternelle Sainte Marie;5;ENSEIGNEMENT;501;Maternelle;;;Privé;BASSE-GOULAINE;8 Rue de la Vieille Cure;02 40 06 04 15;;44115;[ 47.2156598880823 , -1.46639159323889]
2805;Elémentaire Le Grignon;5;ENSEIGNEMENT;502;Elémentaire;;;Public;BASSE-GOULAINE;Rue de la Poste;02 40 06 01 31;;44115;[ 47.2173890364362 , -1.46689054311408]
2806;Maternelle Henri Lesage;5;ENSEIGNEMENT;501;Maternelle;;;Public;VERTOU;132 Route de la Fontenelle;02 51 71 06 33;;44120;[ 47.187722487574 , -1.50114975004779]
2807;Primaire Sainte Famille;5;ENSEIGNEMENT;503;Primaire;;;Privé;VERTOU;12 Rue de l'Asile;02 40 34 49 82;;44120;[ 47.1824371095654 , -1.511292198526]
2808;Elémentaire Henri Lesage;5;ENSEIGNEMENT;502;Elémentaire;;;Public;VERTOU;27 Rue des Ecoles;02 51 71 06 32;;44120;[ 47.1871250535773 , -1.50050156468779]
2809;Maternelle Maryse Bastié;5;ENSEIGNEMENT;501;Maternelle;;;Public;BOUAYE;12 Avenue du Moulin;02 40 32 60 13;;44830;[ 47.145585488459 , -1.69071374849392]
2810;Elémentaire Maryse Bastié;5;ENSEIGNEMENT;502;Elémentaire;;;Public;BOUAYE;12 Avenue du Moulin;02 40 65 46 40;;44830;[ 47.1458231666132 , -1.69103145718892]
2811;Primaire Notre Dame de la Trinité;5;ENSEIGNEMENT;503;Primaire;;;Privé;BOUAYE;44 Rue de l'Ancienne Eglise;02 40 65 51 00;;44830;[ 47.1470469142932 , -1.69648192231168]
2812;Primaire Victor Hugo;5;ENSEIGNEMENT;503;Primaire;;;Public;BOUAYE;Rue de la Gare;02 40 65 52 76;;44830;[ 47.1436603925091 , -1.69163936585666]
2813;Lycée Général et Technologique La Herdrie;5;ENSEIGNEMENT;505;Lycée;;;Public;BASSE-GOULAINE;81 Rue de la Basse Lande;02 51 71 32 00;;44115;[ 47.1978020518969 , -1.44974619496107]
2815;Lycée Général et Technologique Alcide d'Orbigny;5;ENSEIGNEMENT;505;Lycée;;;Public;BOUAYE;Esplanade de l'Edit de Nantes;02 51 70 55 11;;44830;[ 47.1558116706201 , -1.68024055250338]
2816;Lycée Professionnel Jean Jacques Audubon;5;ENSEIGNEMENT;505;Lycée;;;Public;COUERON;Boulevard Paul Langevin;02 40 86 11 67;;44220;[ 47.2148147054545 , -1.7238740944728]
2817;Lycée d'Enseignement Agricole Privé Centre de Formation Professionnel Saint Gabr;5;ENSEIGNEMENT;505;Lycée;;;Privé;LE-PELLERIN;Allée du Bois Tillac;08 10 05 64 05;www.saint-gabriel-nantes-ocean.fr;44640;[ 47.2035334981134 , -1.7689232665522]
2818;Lycée Général et Technologique Jean Perrin;5;ENSEIGNEMENT;505;Lycée;;;Public;REZE;Rue du Château de Rezé;02 40 32 44 00;;44400;[ 47.1812877384222 , -1.55976686145892]
2819;Lycée Professionnel Jean Louis Goussier;5;ENSEIGNEMENT;505;Lycée;;;Public;REZE;Rue du Château de Rezé;02 40 32 44 00;;44400;[ 47.1811356048672 , -1.5594927653824]
2820;Lycée Professionnel Notre Dame;5;ENSEIGNEMENT;505;Lycée;;;Privé;REZE;50 Rue Jean Jaurès;02 40 32 87 87;www.notre-dame-reze.fr;44400;[ 47.1878111559182 , -1.54733166382256]
2821;Collège Petite Lande;5;ENSEIGNEMENT;504;Collège;;;Public;REZE;105 Rue Georges Berthomé;02 40 75 48 50;;44400;[ 47.1787909345384 , -1.5498910922855]
2822;Collège Pont Rousseau;5;ENSEIGNEMENT;504;Collège;;;Public;REZE;3 Rue Félix Tableau;02 40 75 15 72;;44400;[ 47.1869696976656 , -1.54517347389106]
2823;Collège Bellestre;5;ENSEIGNEMENT;504;Collège;;;Public;BOUAYE;Rue du Stade;02 51 70 50 71;;44830;[ 47.1485914184079 , -1.69582789288933]
2824;Collège Saint Hermeland;5;ENSEIGNEMENT;504;Collège;;;Privé;BOUAYE;8 Rue de l'Ancienne Eglise;02 40 65 46 10;;44830;[ 47.1441721677739 , -1.696638884678]
2825;Collège Sainte Anne;5;ENSEIGNEMENT;504;Collège;;;Privé;CARQUEFOU;7 Rue Jean XXIII;02 40 50 90 93;;44470;[ 47.2949182597702 , -1.49347560263763]
2826;Collège Gérard Philipe;5;ENSEIGNEMENT;504;Collège;;;Public;CARQUEFOU;7 Rue Victor Hugo;02 40 52 68 44;;44470;[ 47.2832036592939 , -1.48454282427926]
2827;Collège Pierre et Marie Curie;5;ENSEIGNEMENT;504;Collège;;;Public;LE-PELLERIN;4 Rue de l'Hermitage;02 40 04 65 75;pmcurie.loire-atlantique.e-lyco.fr/;44640;[ 47.1954264023119 , -1.75747365487475]
2828;Collège Paul Langevin;5;ENSEIGNEMENT;504;Collège;;;Public;COUERON;Boulevard Paul Langevin;02 40 86 11 67;;44220;[ 47.2145897871586 , -1.72235483906688]
2829;Collège Sainte Philomène;5;ENSEIGNEMENT;504;Collège;;;Privé;COUERON;31 Rue Jean Jaurès;02 40 86 18 34;;44220;[ 47.2122624495007 , -1.7241323141271]
2830;Collège de La Coutancière;5;ENSEIGNEMENT;504;Collège;;;Public;LA-CHAPELLE-SUR-ERDRE;6 Allée de la Coutancière;02 40 29 76 16;clg.coutanciere.free.fr;44240;[ 47.3084062724082 , -1.56222005467746]
2831;Collège Le Grand Beauregard;5;ENSEIGNEMENT;504;Collège;;;Public;LA-CHAPELLE-SUR-ERDRE;10 Rue Léo Lagrange;02 40 72 94 20;www.lachapellesurerdre.fr;44240;[ 47.2974527343716 , -1.55713876305393]
2832;Collège Saint Exupéry;5;ENSEIGNEMENT;504;Collège;;;Public;LA-MONTAGNE;Rue Saint-Exupéry;02 40 65 68 79;;44620;[ 47.1844990799424 , -1.68293053979965]
2833;Collège Notre Dame;5;ENSEIGNEMENT;504;Collège;;;Privé;LA-MONTAGNE;5 Rue du Calvaire;02 40 65 60 67;;44620;[ 47.1897355559054 , -1.68707198742148]
2835;Collège Sainte Anne;5;ENSEIGNEMENT;504;Collège;;;Privé;REZE;11 Rue Saint Lupien;02 40 75 42 71;;44400;[ 47.1916987202651 , -1.56783982207037]
2836;Collège Saint Paul;5;ENSEIGNEMENT;504;Collège;;;Privé;REZE;68 Rue Jean Jaurès;02 51 11 01 01;;44400;[ 47.1868252278776 , -1.5476694437663]
2837;Collège La Reinetière;5;ENSEIGNEMENT;504;Collège;;;Public;SAINTE-LUCE-SUR-LOIRE;Boulevard Louis Pasteur;02 40 25 71 27;;44980;[ 47.2583738609297 , -1.48880391434526]
2838;Collège Les Sables d'Or;5;ENSEIGNEMENT;504;Collège;;;Public;THOUARE-SUR-LOIRE;7 Route de la Barre;02 51 85 95 10;http://sablesdor-thouare.loire-atlantique.e-lyco.fr;44470;[ 47.2643106488549 , -1.45647916260235]
2839;Collège Jean Monnet;5;ENSEIGNEMENT;504;Collège;;;Public;VERTOU;51 Boulevard des Sports;02 51 71 09 09;www.vertou.fr;44120;[ 47.165868715734 , -1.46664996004937]
2840;Collège Saint Blaise;5;ENSEIGNEMENT;504;Collège;;;Privé;VERTOU;14 Rue du Général De Gaulle;02 40 34 37 61;www.collegesaintblaise-vertou.fr;44120;[ 47.166008861254 , -1.46919086101288]
2841;Primaire Notre Dame;5;ENSEIGNEMENT;503;Primaire;;;Privé;LE-PELLERIN;12 Rue de l'Enclos;02 40 04 54 22;;44640;[ 47.2008190083552 , -1.75344911534872]
2842;Elémentaire l'Hermitage;5;ENSEIGNEMENT;502;Elémentaire;;;Public;LE-PELLERIN;2 Rue de l'Hermitage;02 40 04 65 49;;44640;[ 47.1964316557237 , -1.75791081148231]
2843;Maternelle Les Asphodèles;5;ENSEIGNEMENT;501;Maternelle;;;Public;LE-PELLERIN;6 Rue de l'Hermitage;02 40 04 64 33;;44640;[ 47.1948380336464 , -1.75690479130485]
2844;Elémentaire Aimé Césaire;5;ENSEIGNEMENT;502;Elémentaire;;;Public;LE-PELLERIN;Rue de la Génolière;02 40 04 68 90;www.ville-lepellerin.fr;44640;[ 47.1970073982388 , -1.76191027106024]
2845;Primaire Notre Dame;5;ENSEIGNEMENT;503;Primaire;;;Privé;LA-MONTAGNE;5 Rue du Calvaire;02 40 65 82 28;;44620;[ 47.1896802111447 , -1.68644373799428]
2846;Maternelle Marcel Gouzil;5;ENSEIGNEMENT;501;Maternelle;;;Public;LA-MONTAGNE;Rue Salvador Allende;02 40 65 81 58;;44620;[ 47.1864601346731 , -1.68691934223627]
2847;Elémentaire Jules Verne;5;ENSEIGNEMENT;502;Elémentaire;;;Public;LA-MONTAGNE;Rue Jules Verne;02 40 65 70 79;;44620;[ 47.1881133316381 , -1.67551570551948]
2848;Elémentaire Jules Ferry;5;ENSEIGNEMENT;502;Elémentaire;;;Public;LA-MONTAGNE;Rue Jules Ferry;02 40 65 75 41;;44620;[ 47.1904780708383 , -1.68757694696312]
2849;Maternelle Joachim du Bellay;5;ENSEIGNEMENT;501;Maternelle;;;Public;LA-MONTAGNE;Rue Joachim Du Bellay;02 40 65 70 94;;44620;[ 47.1828822524812 , -1.68027493151567]
2850;Elémentaire Pierre Mara;5;ENSEIGNEMENT;502;Elémentaire;;;Public;INDRE;16 Rue Jean-Baptiste Rabillard;02 40 86 06 18;;44610;[ 47.195626185115 , -1.6486964166078]
2851;Maternelle Pierre Mara;5;ENSEIGNEMENT;501;Maternelle;;;Public;INDRE;16 Rue Jean-Baptiste Rabillard;02 40 38 05 82;;44610;[ 47.1956620578288 , -1.6494586849107]
2852;Maternelle Jules Ferry;5;ENSEIGNEMENT;501;Maternelle;;;Public;INDRE;1 Rue de la Gare;02 40 38 05 81;;44610;[ 47.2000169055873 , -1.67025207357105]
2854;Elémentaire Jules Ferry;5;ENSEIGNEMENT;502;Elémentaire;;;Public;INDRE;5 Rue de la Gare;02 40 86 01 49;;44610;[ 47.2002326595237 , -1.66971511958311]
2855;Elémentaire Saint Symphorien;5;ENSEIGNEMENT;502;Elémentaire;;;Privé;COUERON;53 Rue Henri Gautier;02 40 86 12 15;;44220;[ 47.2161627839999 , -1.72951666475033]
2856;Maternelle Rose Orain;5;ENSEIGNEMENT;501;Maternelle;;;Public;COUERON;5 Rue du Professeur Jean Bernard;02 40 38 06 12;;44220;[ 47.2118409775509 , -1.72610042790858]
2857;Elémentaire Paul Bert;5;ENSEIGNEMENT;502;Elémentaire;;;Public;COUERON;Rue Rouget de Lisle;02 40 38 00 38;;44220;[ 47.2170314946378 , -1.68451305249117]
2858;Elémentaire Marcel Gouzil;5;ENSEIGNEMENT;502;Elémentaire;;;Public;COUERON;Boulevard Francois Blancho;02 40 38 00 26;;44220;[ 47.2153464885253 , -1.72722333239736]
2859;Maternelle Charlotte Divet;5;ENSEIGNEMENT;501;Maternelle;;;Public;COUERON;56 Rue Henri Gautier;02 40 86 11 85;;44220;[ 47.2150461431534 , -1.72818714928865]
2860;Elémentaire Louise Michel;5;ENSEIGNEMENT;502;Elémentaire;;;Public;COUERON;3 Rue du Professeur Jean Bernard;02 40 86 11 83;;44220;[ 47.2121938517449 , -1.72587696833371]
2861;Maternelle Léon Blum;5;ENSEIGNEMENT;501;Maternelle;;;Public;COUERON;Rue de la Pierre;02 40 86 19 64;;44220;[ 47.214744659919 , -1.71877390518722]
2862;Elémentaire La Métairie;5;ENSEIGNEMENT;502;Elémentaire;;;Public;COUERON;Rue de Trévellec;02 40 38 00 44;;44220;[ 47.2169508085666 , -1.7002907872772]
2863;Maternelle La Métairie;5;ENSEIGNEMENT;501;Maternelle;;;Public;COUERON;Rue de Trévellec;02 40 86 12 52;;44220;[ 47.2172184342488 , -1.69989954968891]
2864;Maternelle Jean Macé;5;ENSEIGNEMENT;501;Maternelle;;;Public;COUERON;Rue de la Noë Allais;02 40 86 02 47;;44220;[ 47.2179053269762 , -1.68362694508283]
2865;Elémentaire Aristide Briand;5;ENSEIGNEMENT;502;Elémentaire;;;Public;COUERON;Rue du Premier Mai;02 40 38 01 51;;44220;[ 47.215055484327 , -1.68242468403872]
2866;Elémentaire Anne Franck;5;ENSEIGNEMENT;502;Elémentaire;;;Public;COUERON;Rue de la Pierre;02 40 38 01 25;;44220;[ 47.2149655663879 , -1.71940260121321]
2867;Maternelle Saint Symphorien;5;ENSEIGNEMENT;501;Maternelle;;;Privé;COUERON;27 Rue Jean Jaurès;02 40 86 07 53;;44220;[ 47.2124311187591 , -1.72472161326267]
2868;Primaire Sainte Anne;5;ENSEIGNEMENT;503;Primaire;;;Privé;BRAINS;26 Rue du Plessis;02 40 65 40 48;;44830;[ 47.1666917546157 , -1.72046818136633]
2869;Primaire Jules Verne;5;ENSEIGNEMENT;503;Primaire;;;Public;BRAINS;20 Rue des Clos Mâts;02 40 65 47 54;;44830;[ 47.1678101699788 , -1.72215536475243]
2870;Primaire Saint Joseph;5;ENSEIGNEMENT;503;Primaire;;;Privé;CARQUEFOU;6 Rue Jeanne d'Arc;02 40 50 90 76;;44470;[ 47.2957333701578 , -1.49237474358027]
2871;Primaire Louis Armand;5;ENSEIGNEMENT;503;Primaire;;;Public;CARQUEFOU;13 Rue Notre Dame la Blanche;02 40 52 97 82;;44470;[ 47.296580796 , -1.48923094520603]
2874;Primaire Jacques Prévert;5;ENSEIGNEMENT;503;Primaire;;;Public;CARQUEFOU;4 Rue Victor Hugo;02 28 01 55 20;;44470;[ 47.2816275435507 , -1.48438568125275]
2875;Primaire Georges Brassens;5;ENSEIGNEMENT;503;Primaire;;;Public;CARQUEFOU;10 Rue Victor Hugo;02 28 01 55 20;www.carquefou.fr;44470;[ 47.2824606123239 , -1.48332489272721]
2878;Primaire Anne Frank;5;ENSEIGNEMENT;503;Primaire;;;Public;CARQUEFOU;8 Rue Pierre Mendes France;02 28 01 51 90;;44470;[ 47.3017033429562 , -1.49012546271232]
2879;Elémentaire La Croix Jeannette;5;ENSEIGNEMENT;502;Elémentaire;;;Public;BOUGUENAIS;Place de la Croix Jeannette;02 40 65 09 86;www.ville-bouguenais.fr;44340;[ 47.1722229700622 , -1.62089231529402]
2880;Maternelle La Tilleulière;5;ENSEIGNEMENT;501;Maternelle;;;Public;LES-SORINIERES;1 Rue des Ecoles;02 40 05 77 07;;44840;[ 47.1467344807957 , -1.5282466279859]
2881;Elémentaire La Tilleulière;5;ENSEIGNEMENT;502;Elémentaire;;;Public;LES-SORINIERES;85 Rue Georges Clemenceau;02 40 05 77 08;;44840;[ 47.1470156621752 , -1.52866283967035]
2882;Maternelle Le Clos du Moulin;5;ENSEIGNEMENT;501;Maternelle;;;Public;LES-SORINIERES;60 Rue des Sports;02 40 05 77 15;;44840;[ 47.1449930817947 , -1.5225416707014]
2883;Elémentaire Le Clos du Moulin;5;ENSEIGNEMENT;502;Elémentaire;;;Public;LES-SORINIERES;60 Rue des Sports;02 40 05 77 16;;44840;[ 47.1448977507314 , -1.52306405010763]
2884;Primaire Sainte Marie;5;ENSEIGNEMENT;503;Primaire;;;Privé;LES-SORINIERES;9 Rue des Ecoles;02 40 31 22 00;;44840;[ 47.1487282365773 , -1.52798632847985]
2885;Maternelle Elémentaire Jules Verne;5;ENSEIGNEMENT;503;Primaire;;;Public;MAUVES-SUR-LOIRE;11B Rue du Cellier;02 40 25 51 66;;44470;[ 47.2972775084754 , -1.39332813430742]
2886;Maternelle Elémentaire Saint Joseph;5;ENSEIGNEMENT;503;Primaire;;;Privé;MAUVES-SUR-LOIRE;26 Rue de la Mairie;02 40 25 51 11;;44470;[ 47.2969954749833 , -1.39389038173282]
2887;Elémentaire Pont-Marchand;5;ENSEIGNEMENT;502;Elémentaire;;;Public;ORVAULT;22 Rue du Pont Marchand;02 28 07 45 59;www.orvault.fr;44700;[ 47.2627008311884 , -1.63147439318341]
2888;Maternelle Elémentaire Notre Dame;5;ENSEIGNEMENT;503;Primaire;;;Privé;REZE;29 Rue Fontaine Launay;02 40 75 74 22;;44400;[ 47.1873982988978 , -1.54820740319556]
2889;Maternelle Roger Salengro;5;ENSEIGNEMENT;501;Maternelle;;;Public;REZE;28 Rue Alexandre Huchon;02 40 75 71 15;;44400;[ 47.1842839717475 , -1.54787969588691]
2890;Elémentaire Roger Salengro;5;ENSEIGNEMENT;502;Elémentaire;;;Public;REZE;17 Place Roger Salengro;02 40 84 31 33;;44400;[ 47.1842885541225 , -1.54866795452829]
2891;Elémentaire Pauline Roland;5;ENSEIGNEMENT;502;Elémentaire;;;Public;REZE;5 Allée de Picardie;02 40 75 43 46;www.reze;;
2892;Maternelle Pauline Roland;5;ENSEIGNEMENT;501;Maternelle;;;Public;REZE;29B Rue du Lieutenant de Monti;02 40 75 82 74;www.reze.fr;44400;[ 47.1864753482739 , -1.55796391160418]
2893;Maternelle Château Sud;5;ENSEIGNEMENT;501;Maternelle;;;Public;REZE;2 Rue des Frères Lumière;02 40 75 73 88;;44400;[ 47.1809945152909 , -1.55870029609115]
2894;Elementaire Château Sud;5;ENSEIGNEMENT;502;Elémentaire;;;Public;REZE;Rue des Frères Lumière;02 40 84 31 90;;44400;[ 47.18134954696 , -1.55821077542443]
2895;Maternelle Chêne Creux;5;ENSEIGNEMENT;501;Maternelle;;;Public;REZE;Rue des Jardins;02 40 75 71 06;;44400;[ 47.1724670366876 , -1.54545704321851]
2896;Elémentaire Chêne Creux;5;ENSEIGNEMENT;502;Elémentaire;;;Public;REZE;31 Rue Jean-Baptiste et Henri Tendron;02 40 75 43 55;;44400;[ 47.1740418189186 , -1.54701678194601]
2897;Primaire Jean Jaures;5;ENSEIGNEMENT;503;Primaire;;;Public;REZE;1 Rue Paul Ploquin;02 40 75 45 75;;44400;[ 47.1940658077849 , -1.57932234411324]
2899;Maternelle La Houssais;5;ENSEIGNEMENT;501;Maternelle;;;Public;REZE;34 Avenue de la Houssais;02 40 75 83 65;;44400;[ 47.1744231487875 , -1.55230041025418]
2900;Elémentaire La Houssais;5;ENSEIGNEMENT;502;Elémentaire;;;Public;REZE;101 Rue Maurice Jouaud;02 40 04 19 30;;44400;[ 47.1753032017663 , -1.55405840375805]
2901;Maternelle Le Corbusier;5;ENSEIGNEMENT;501;Maternelle;;;Public;REZE;Boulevard Le Corbusier;02 40 75 72 99;;44400;[ 47.1884606820132 , -1.56829018080897]
2902;Maternelle Ouche Dinier;5;ENSEIGNEMENT;501;Maternelle;;;Public;REZE;Rue de l'Ouche Dinier;02 40 75 72 88;;44400;[ 47.1790966924501 , -1.53576810283364]
2903;Elémentaire Ouche Dinier;5;ENSEIGNEMENT;502;Elémentaire;;;Public;REZE;Rue de l'Ouche Dinier;;;44400;[ 47.1790744790606 , -1.53691100940641]
2905;Primaire Port-au-Blé;5;ENSEIGNEMENT;503;Primaire;;;Public;REZE;8 Rue du Port au Blé;02 40 75 25 29;;44400;[ 47.190773669235 , -1.55468624793]
2906;Primaire Ragon;5;ENSEIGNEMENT;503;Primaire;;;Public;REZE;Boulevard Condorcet;02 40 75 49 56;;44400;[ 47.1657386465253 , -1.54063316906624]
2907;Primaire Saint Anne - Saint Joseph;5;ENSEIGNEMENT;503;Primaire;;;Privé;REZE;8 Rue Camille Jouis;02 40 75 20 52;;44400;[ 47.1902361171281 , -1.5695952530676]
2908;Elémentaire Saint Paul;5;ENSEIGNEMENT;502;Elémentaire;;;Privé;REZE;66 Rue Jean Jaurès;02 51 11 01 01;;44400;[ 47.1867572478688 , -1.54700087410977]
2909;Maternelle Sainte Anne;5;ENSEIGNEMENT;501;Maternelle;;;Privé;REZE;11 Rue Saint Lupien;02 51 70 14 98;;44400;[ 47.1917059697372 , -1.56724310682132]
2913;Maternelle de l'Enclos;5;ENSEIGNEMENT;501;Maternelle;;;Public;VERTOU;9 Rue du Huit Mai 1945;02 40 34 44 91;;44120;[ 47.1701802949092 , -1.47406700640505]
2914;Primaire  Les Regniers;5;ENSEIGNEMENT;502;Elémentaire;;;Public;VERTOU;27 Rue des Reigniers;02 40 05 71 42;;44120;[ 47.1369161035294 , -1.4636373518138]
2916;Maternelle Les Treilles;5;ENSEIGNEMENT;501;Maternelle;;;Public;VERTOU;17 Avenue de Morges;02 40 34 85 23;www.vertou.fr;44120;[ 47.1666991650383 , -1.47186228576512]
2917;Elémentaire Les Treilles;5;ENSEIGNEMENT;502;Elémentaire;;;Public;VERTOU;17 Avenue de Morges;02 40 34 88 99;www.vertou.fr;44120;[ 47.1670579135085 , -1.47225387679796]
2918;Maternelle Saint Martin;5;ENSEIGNEMENT;501;Maternelle;;;Privé;VERTOU;2 Place des Dix Otages;02 40 34 42 58;www.smsjvertou.fr;44120;[ 47.1673654471071 , -1.47260089055749]
2919;Elémentaire Saint Jospeh;5;ENSEIGNEMENT;502;Elémentaire;;;Privé;VERTOU;2 Place des Dix Otages;02 40 34 42 58;www.smsjvertou.fr;44120;[ 47.1680751201804 , -1.47212547587036]
2920;Maternelle Elémentaire Saint Marc;5;ENSEIGNEMENT;503;Primaire;;;Privé;SAINT-JEAN-DE-BOISEAU;4 Rue Charles De Gaulle;02 40 65 74 75;st-marc.jimdo.com;44640;[ 47.1940288286175 , -1.72249042351929]
2921;Primaire Jacques Brel;5;ENSEIGNEMENT;503;Primaire;;;Public;SAINT-LEGER-LES-VIGNES;Rue de Nantes;02 40 05 68 07;;44710;[ 47.1360741013656 , -1.72946985613889]
2922;Maternelle Elémentaire La Providence;5;ENSEIGNEMENT;503;Primaire;;;Privé;ST-SEBASTIEN;38 Rue du Docteur Paul Michaux;02 40 34 71 52;;44230;[ 47.2076731336141 , -1.50937430300419]
2923;Elémentaire La Reinetière;5;ENSEIGNEMENT;502;Elémentaire;;;Public;SAINTE-LUCE-SUR-LOIRE;57 Boulevard Louis Pasteur;02 40 25 69 26;;44980;[ 47.2576239911867 , -1.48973542737272]
2924;Maternelle La Reinetière;5;ENSEIGNEMENT;501;Maternelle;;;Public;SAINTE-LUCE-SUR-LOIRE;61 Boulevard Louis Pasteur;02 40 25 86 81;;44980;[ 47.2575033019202 , -1.48940969584611]
2925;Elémentaire Les Tilleuls;5;ENSEIGNEMENT;502;Elémentaire;;;Public;SAINTE-LUCE-SUR-LOIRE;1B Rue Jules Ferry;02 40 25 66 19;;44980;[ 47.2514819832587 , -1.48658280204332]
2926;Elémentaire La Cerisaie;5;ENSEIGNEMENT;502;Elémentaire;;;Public;SAINTE-LUCE-SUR-LOIRE;10 Rue Jules Ferry;02 40 25 66 57;;44980;[ 47.2508975984874 , -1.48561419729631]
2927;Maternelle Les Prés Verts;5;ENSEIGNEMENT;501;Maternelle;;;Public;SAINTE-LUCE-SUR-LOIRE;12 Rue Jules Ferry;02 40 25 70 76;;44980;[ 47.2513080340976 , -1.48538811090092]
2928;Maternelle Les Pommes de Pin;5;ENSEIGNEMENT;501;Maternelle;;;Public;SAINTE-LUCE-SUR-LOIRE;2B Rue Jules Ferry;02 40 25 66 94;;44980;[ 47.2507096470765 , -1.48679054778022]
2929;Primaire Saint Vincent;5;ENSEIGNEMENT;503;Primaire;;;Privé;SAINTE-LUCE-SUR-LOIRE;6 Place Saint Exupéry;02 40 25 62 97;;44980;[ 47.2502816718911 , -1.48874070543775]
2931;Maternelle La Halbarderie 1;5;ENSEIGNEMENT;501;Maternelle;;;Public;THOUARE-SUR-LOIRE;5 Rue des Ecoles;02 40 77 32 58;;44470;[ 47.2696647002944 , -1.43954317079371]
2932;Elémentaire Paul Fort;5;ENSEIGNEMENT;502;Elémentaire;;;Public;THOUARE-SUR-LOIRE;Rue de Homberg;02 40 77 56 05;;44470;[ 47.2691673103063 , -1.44141361949763]
2933;Primaire Saint Louis de Monfort;5;ENSEIGNEMENT;503;Primaire;;;Public;THOUARE-SUR-LOIRE;Allée de la Coulée Verte;02 40 77 35 95;;44470;[ 47.2714543637012 , -1.44080950661743]
2934;Elémentaire Robert-Badinter;5;ENSEIGNEMENT;502;Elémentaire;;;Public;SAINT-JEAN-DE-BOISEAU;Avenue du Onze Novembre;02 40 65 64 94;ecole.boiseau.free.fr;44640;[ 47.1951230719613 , -1.72445432829662]
2936;Maternelle Emilienne-Leroux;5;ENSEIGNEMENT;501;Maternelle;;;Public;SAINT-JEAN-DE-BOISEAU;Rue des Violettes;02 40 65 86 68;ec-leroux-44.ac-nantes.fr;44640;[ 47.1928170942661 , -1.72434121899621]
2937;Primaire La Forêt;5;ENSEIGNEMENT;503;Primaire;;;Public;SAUTRON;19 Rue de la Forêt;02 40 94 95 25;;44880;[ 47.2645820070088 , -1.67784790868785]
2938;Maternelle La Rivière;5;ENSEIGNEMENT;501;Maternelle;;;Public;SAUTRON;Rue de la Rivière;02 40 63 23 96;;44880;[ 47.2633536127781 , -1.67056986209616]
2939;Elémentaire La Rivière;5;ENSEIGNEMENT;502;Elémentaire;;;Public;SAUTRON;Rue de la Rivière;02 40 63 17 87;;44880;[ 47.263830914977 , -1.67095865919338]
2940;Primaire Saint Jean Baptiste;5;ENSEIGNEMENT;503;Primaire;;;Privé;SAUTRON;13 Rue de l'Eglise;02 40 63 19 25;www.ecole-privee-sautron.tk;44880;[ 47.2643968116988 , -1.67128886967642]
2941;Primaire Jules d'Herbauges;5;ENSEIGNEMENT;503;Primaire;;;Public;SAINT-AIGNAN-GRANDLIEU;Place Saint Amani;02 40 26 45 00;ec-herbauges-44.ac-nantes.fr;44860;[ 47.1208969381967 , -1.63867931926341]
2943;Primaire Saint Pierre;5;ENSEIGNEMENT;503;Primaire;;;Privé;SAINT-AIGNAN-GRANDLIEU;26 Rue des Frères Rousseau;02 40 31 03 75;;44860;[ 47.1244829453125 , -1.63078077171359]
2945;Elémentaire Beauregard;5;ENSEIGNEMENT;502;Elémentaire;;;Public;ST-HERBLAIN;22 Avenue de Beauregard;02 40 38 36 02;www.saint-herblain.fr;44800;[ 47.2115434349795 , -1.65876995594925]
2946;Elémentaire Bernardière;5;ENSEIGNEMENT;502;Elémentaire;;;Public;ST-HERBLAIN;5 Rue de la Lozère;02 40 95 13 20;www.saint-herblain.fr;44800;[ 47.2066105950368 , -1.6177915384289]
2947;Elémentaire Condorcet;5;ENSEIGNEMENT;502;Elémentaire;;;Public;ST-HERBLAIN;9 Rue de Tillay;02 40 58 65 73;www.saint-herblain.fr;44800;[ 47.2310036737641 , -1.60590555044479]
2948;Elémentaire Crémetterie;5;ENSEIGNEMENT;502;Elémentaire;;;Public;ST-HERBLAIN;15 Rue de l'Ecole;02 40 43 93 37;www.saint-herblain.fr;44800;[ 47.2156323657241 , -1.60909931334529]
2949;Elémentaire Jacqueline Auriol;5;ENSEIGNEMENT;502;Elémentaire;;;Public;ST-HERBLAIN;33 Rue des Calvaires;02 40 38 30 48;www.saint-herblain.fr;44800;[ 47.2123270332356 , -1.64956765626286]
2950;Elémentaire Joli Mai;5;ENSEIGNEMENT;502;Elémentaire;;;Public;ST-HERBLAIN;66 Avenue de Cheverny;02 40 76 08 14;www.saint-herblain.fr;44800;[ 47.2431575172943 , -1.60149190067276]
2952;Elémentaire La Rabotière;5;ENSEIGNEMENT;502;Elémentaire;;;Public;ST-HERBLAIN;4 Rue de Saint Servan;02 40 95 01 43;www.saint-herblain.fr;44800;[ 47.2152744976857 , -1.61659152115528]
2953;Elémentaire La Sensive;5;ENSEIGNEMENT;502;Elémentaire;;;Public;ST-HERBLAIN;1 Rue de la Gironde;02 40 95 01 58;www.saint-herblain.fr;44800;[ 47.2106157194959 , -1.6133526121918]
2954;Elémentaire Les Grands Bois;5;ENSEIGNEMENT;502;Elémentaire;;;Public;ST-HERBLAIN;9 Avenue des Grands Bois;02 40 59 20 54;www.saint-herblain.fr;44800;[ 47.2337411507036 , -1.5913759201213]
2955;Elémentaire René Guy Cadou;5;ENSEIGNEMENT;502;Elémentaire;;;Public;ST-HERBLAIN;2 Rue du Bois de Lagland;02 40 63 80 63;www.saint-herblain.fr;44800;[ 47.2337964064034 , -1.63234798586977]
2956;Maternelle Soleil Levant;5;ENSEIGNEMENT;501;Maternelle;;;Public;ST-HERBLAIN;38 Rue de la Blanche;02 40 58 27 92;www.saint-herblain.fr;44800;[ 47.2200394891825 , -1.6118575154486]
2987;Maternelle Beausoleil;5;ENSEIGNEMENT;501;Maternelle;;;Public;LA-CHAPELLE-SUR-ERDRE;Rue de Beausoleil;02 40 72 87 07;ec-beausoleil-44.ac-nantes.fr;44240;[ 47.3041283073074 , -1.56211645421547]
2988;Elémentaire Beausoleil;5;ENSEIGNEMENT;502;Elémentaire;;;Public;LA-CHAPELLE-SUR-ERDRE;Rue de Beausoleil;02 40 72 06 15;ec-beausoleil-44.ac-nantes.fr;44240;[ 47.3041450764179 , -1.56133976696503]
2989;Maternelle La Blanchetière;5;ENSEIGNEMENT;501;Maternelle;;;Public;LA-CHAPELLE-SUR-ERDRE;3 Rue de la Blanchetière;02 40 72 87 08;www.lachapellesurerdre.fr;44240;[ 47.2886546871499 , -1.55368355349151]
2990;Elémentaire La Blanchetière;5;ENSEIGNEMENT;502;Elémentaire;;;Public;LA-CHAPELLE-SUR-ERDRE;3 Rue de la Blanchetière;02 40 77 80 18;www.lachapellesurerdre.fr;44240;[ 47.2881548480675 , -1.55358654432806]
2991;Maternelle La Lande de Mazaire;5;ENSEIGNEMENT;501;Maternelle;;;Public;LA-CHAPELLE-SUR-ERDRE;Rue de la Hautière;02 40 72 87 06;www.lachapellesurerdre.fr;44240;[ 47.2957324928364 , -1.55598991608517]
2992;Elémentaire La Lande de Mazaire;5;ENSEIGNEMENT;502;Elémentaire;;;Public;LA-CHAPELLE-SUR-ERDRE;Rue de la Hautière;02 40 72 01 96;www.lachapellesurerdre.fr;44240;[ 47.2963354911738 , -1.55681759391203]
2993;Maternelle Robert Doisneau;5;ENSEIGNEMENT;501;Maternelle;;;Public;LA-CHAPELLE-SUR-ERDRE;Boulevard du Gesvres;02 40 37 73 82;ecolerobertdoisneau.free.fr;44240;[ 47.2672471418801 , -1.55024009543805]
2994;Elémentaire Robert Doisneau;5;ENSEIGNEMENT;502;Elémentaire;;;Public;LA-CHAPELLE-SUR-ERDRE;Boulevard du Gesvres;02 40 93 58 97;ecolerobertdoisneau.free.fr;44240;[ 47.267672332687 , -1.54955065954073]
2995;Primaire Saint Michel;5;ENSEIGNEMENT;503;Primaire;;;Privé;LA-CHAPELLE-SUR-ERDRE;10B Avenue de la Gare;02 40 72 01 89;www.ecolesaintmichel.org;44240;[ 47.2973095385537 , -1.55056442644802]
3052;Elémentaire Françoise Giroud;5;ENSEIGNEMENT;502;Elémentaire;;;Public;ST-HERBLAIN;5 Chemin de la Solvardière;02 28 03 82 61;www.saint-herblain.fr;44800;[ 47.2171394130458 , -1.64198535153939]
3078;Primaire Pierre Stalder;5;ENSEIGNEMENT;503;Primaire;;;Public;CARQUEFOU;8 Avenue du Souchais;02 28 23 22 30;www.carquefou.fr;44470;[ 47.3035668582094 , -1.49781740570406]
3131;GRETA  Nantes Industrie;5;ENSEIGNEMENT;507;Centre de formation;;;Non Renseigné;NANTES;16 Rue Dufour;02 40 14 56 56;www.Greta.ac-nantes.fr;44000;[ 47.2255931015133 , -1.54482677975656]
3158;Institut Catholique des Arts et Métiers;5;ENSEIGNEMENT;506;Supérieur;;;Non Renseigné;CARQUEFOU;35 Chemin du Champ de Manoeuvre;02 40 52 40 52;www.icam.fr;44470;[ 47.2749942171352 , -1.50512721909632]
3163;Institut National de Formation et d'Enseignement Professionnel du Caoutchouc (IF;5;ENSEIGNEMENT;507;Centre de formation;;;Non Renseigné;CARQUEFOU;4 Avenue du Professeur Jean Rouxel;02 51 13 15 15;www.ifoca.com;44470;[ 47.2981679309771 , -1.50292619219636]
3164;Institut Université de Nantes (IUT) Industrie;5;ENSEIGNEMENT;506;Supérieur;;;public;CARQUEFOU;2 Avenue du Professeur Jean Rouxel;02 28 09 20 00;www.iut-nantes.univ-nantes.fr;44470;[ 47.2978762019037 , -1.50267209121849]
3246;Association Régionale des Instituts de Formation en Travail Social Pays de la Lo;5;ENSEIGNEMENT;506;Supérieur;;;Non Renseigné;REZE;10 Rue Marion Cahour;02 40 75 80 07;www.arifts.fr/index.php/contacts.html;44400;[ 47.1888296561935 , -1.56663010375542]
3265;Lycée Général et Technologique Notre Dame;5;ENSEIGNEMENT;505;Lycée;;;Privé;REZE;Rue Gendron;02 40 32 87 87;www.notre-dame-reze.fr;44400;[ 47.1831784968626 , -1.54510257939524]
3297;Elémentaire de l'Enclos;5;ENSEIGNEMENT;502;Elémentaire;;;Public;VERTOU;9 Rue du Huit Mai 1945;02 51 71 03 65;;44120;[ 47.1709211423589 , -1.47410321159924]
3384;Elémentaire Saint Brice;5;ENSEIGNEMENT;502;Elémentaire;;;Privé;BASSE-GOULAINE;18 Place Saint Brice;02 40 06 04 15;;44115;[ 47.2147726618515 , -1.46481097718134]
3559;Elémentaire Joachim du Bellay;5;ENSEIGNEMENT;502;Elémentaire;;;Public;THOUARE-SUR-LOIRE;13 Rue de la Maurienne;02 40 77 30 47;;44470;[ 47.2751320270688 , -1.43956162337748]
3581;Lycée agricole Daniel Brottier;5;ENSEIGNEMENT;505;Lycée;;;Privé;BOUAYE;Allée Daniel Brottier;;;44830;[ 47.1612898330105 , -1.67634284202548]
3653;Collège Salvador Allende;5;ENSEIGNEMENT;504;Collège;;;Public;REZE;10 Avenue Léon Blum;02 40 75 46 64;;44400;[ 47.1843352108036 , -1.56985276829213]
3664;Institut de Formation CIFOE;5;ENSEIGNEMENT;507;Centre de formation;;;Non Renseigné;NANTES;4 Rue Bisson;02 40 44 42 00;www.formation-cci.com;44100;[ 47.2057630663687 , -1.57533417321004]
3665;Centre de Formation des Apprentis IFOCOTEP;5;ENSEIGNEMENT;507;Centre de formation;;;Non Renseigné;NANTES;3 Boulevard Bâtonnier Cholet;02 40 46 63 13;www.ifocotep.fr;44100;[ 47.1981846118317 , -1.60685367532121]
3767;Collège Lucie Aubrac;5;ENSEIGNEMENT;504;Collège;;;Public;VERTOU;Rond-Point de la Grammoire;02 40 31 85 28;http://clg-aubrac-44.ac-nantes.fr/;44120;[ 47.1774639239245 , -1.47176323474252]
3791;Primaire Julien Gracq;5;ENSEIGNEMENT;503;Primaire;;;Public;NANTES;3 Mail Haroun Tazieff;02 28 08 12 60;;44300;[ 47.2406166008686 , -1.51435306124787]
3826;Institut d'Etudes Avancées;5;ENSEIGNEMENT;508;Centre de recherche;;;Non Renseigné;NANTES;5 Allée Jacques Berque;02 40 48 30 30;www.iea-nantes.fr;44000;[ 47.2122813739377 , -1.53837875037376]
3827;Maison des Sciences de l'Homme Ange Gépin;5;ENSEIGNEMENT;508;Centre de recherche;;;Non Renseigné;NANTES;Allée Jacques Berque;02 40 48 30 30;www.msh.univ-nantes.fr;44000;[ 47.2123217050219 , -1.53853738077974]
3958;Institut des Hautes Etudes Ostéopathiques;5;ENSEIGNEMENT;506;Supérieur;;;Non Renseigné;ORVAULT;Rue du Commandant Charcot;02 28 07 29 28;www.idheo.com;44700;[ 47.253576782878 , -1.61657372272623]
4047;Primaire Aimé Césaire;5;ENSEIGNEMENT;503;Primaire;;;Public;NANTES;9 Esplanade Edouard Glissant;05 40 95 87 70;;44200;[ 47.2048592058008 , -1.56598858867514]
4086;ONIRIS - site de la Géraudière;5;ENSEIGNEMENT;506;Supérieur;;;Non Renseigné;NANTES;Rue de la Geraudiere;02 51 78 54 54;www.oniris-nantes.fr;44300;[ 47.2643626225361 , -1.56380644479107]
4156;Collège Ostéopathique Sutherland;5;ENSEIGNEMENT;507;Centre de formation;;;Non Renseigné;ST-HERBLAIN;Impasse Serge Reggiani;02 40 92 01 92;www.cos-osteopathie.fr;44800;[ 47.2314335934253 , -1.62789619199287]
4214;Maternelle La Halbarderie 2;5;ENSEIGNEMENT;501;Maternelle;;;Public;THOUARE-SUR-LOIRE;Rue de Homberg;;;44470;[ 47.2694597991548 , -1.44106513112667]
4248;Maternelle Les Reigners;5;ENSEIGNEMENT;501;Maternelle;;;Public;VERTOU;27 Rue des Reigniers;02 40 04 41 41;;44120;[ 47.1370944401067 , -1.46387174054498]
4366;Pôle des Arts Graphiques;5;ENSEIGNEMENT;506;Supérieur;;;Non Renseigné;NANTES;1 Place Albert Camus;02 40 80 82 00;www.la-joliverie.com/pole-des-arts-graphiques;44200;[ 47.2051502823913 , -1.56236769732462]
4376;Maternelle Jean Zay;5;ENSEIGNEMENT;501;Maternelle;;;Public;BOUGUENAIS;Chemin Paul Eluard;02 40 65 29 06;www.ville-bouguenais.fr;44340;[ 47.1727098558515 , -1.62562241856954]
4759;Lycéee International Nelson Mandela;5;ENSEIGNEMENT;505;Lycée;;;Non Renseigné;NANTES;10 Rue Pierre Vidal-Naquet;07 61 61 27 20;http://iledenantes.paysdelaloire.e-lyco.fr/;44200;[ 47.2081178665622 , -1.53368937395892]
4783;Elémentaire Stéphane Hessel;5;ENSEIGNEMENT;502;Elémentaire;;;Public;ST-HERBLAIN;2 Rue du Docteur Alfred Corlay;;www.saint-herblain.fr;44800;[ 47.2081120766731 , -1.64593498892667]
4823;Faculté de Langues;5;ENSEIGNEMENT;506;Supérieur;;;Public;NANTES;Chemin de la Censive du Tertre;02 40 14 12 99;www.flce.univ-nantes.fr;44300;[ 47.2444631926992 , -1.5525303795018]
4824;AGR L'Ecole de l'image;5;ENSEIGNEMENT;506;Supérieur;;;Non Renseigné;NANTES;2B Rue Rollin;02 40 73 18 25;www.agrnantes.fr;44100;[ 47.2096382681044 , -1.57514948630498]
4826;Ecole ESMA Ciné Créatis;5;ENSEIGNEMENT;506;Supérieur;;;Non Renseigné;NANTES;6 Rue René Siegfried;02 40 74 00 32;www.cinecreatis.net;44200;[ 47.2045989031613 , -1.5674566037982]
4827;EAC ( Ecole Atlantique de Commerce );5;ENSEIGNEMENT;506;Supérieur;;;Non Renseigné;NANTES;4 Rue Bisson;02 40 44 42 00;www.ecoleatlantique.com;44100;[ 47.2056262065733 , -1.57524791007154]
4828;Ecole supérieure des professions immobilières (ESPI);5;ENSEIGNEMENT;506;Supérieur;;;Non Renseigné;NANTES;Place de Bretagne;02 40 49 87 46;www.espi.asso.fr;44000;[ 47.217487453244 , -1.55809102877648]
4829;Institut de Formation en Soin Infirmier de la Croix Rouge (IFSI);5;ENSEIGNEMENT;506;Supérieur;;;Non Renseigné;REZE;6 Rue de la Gare;02 40 14 87 32;www.irfss-pays-de-loire.croix-rouge.fr;44400;[ 47.1944413143169 , -1.54904797393767]
4830;SUPINFO;5;ENSEIGNEMENT;506;Supérieur;;;Non Renseigné;ST-HERBLAIN;1 Rue du Charron;01 53 35 97 00;www.supinfo.com;44800;[ 47.2222420885054 , -1.64049851259657]
4839;ATLANPOLE - Siège;5;ENSEIGNEMENT;506;Supérieur;;;Non Renseigné;NANTES;95 Route de Gachet;;www.atlanpole.fr/Atlanpole/Nos-coordonnees;44300;[ 47.2873790631373 , -1.52591882840278]
4878;Maternelle Anne Frank;5;ENSEIGNEMENT;501;Maternelle;;;Public;CARQUEFOU;13 Rue Pierre Mendes France;;;44470;[ 47.301318352959 , -1.49129290936376]
4909;Groupe scolaire Félix Tessier;5;ENSEIGNEMENT;501;Maternelle;;;Public;SAINTE-LUCE-SUR-LOIRE;40 Rue Olympe de Gouges;;;44980;[ 47.2549599534722 , -1.46274199036294]
4911;Elémentaire Nelson Mandela;5;ENSEIGNEMENT;502;Elémentaire;;;Public;ST-HERBLAIN;3 Rue du Danube;;www.saint-herblain.fr;44800;[ 47.2419386044889 , -1.61064383527765]
4913;IRT 2;5;ENSEIGNEMENT;508;Centre de recherche;;;Non Renseigné;NANTES;22 Boulevard Bénoni Goullin;;;44200;[ 47.2019045468007 , -1.55192659108347]
4945;Maternelle Nelson Mandela;5;ENSEIGNEMENT;501;Maternelle;;;Public;ST-HERBLAIN;3 Rue du Danube;;www.saint-herblain.fr;44800;[ 47.2417670317412 , -1.6106487655142]
4946;Maternelle Les Buzardières;5;ENSEIGNEMENT;501;Maternelle;;;Public;ST-HERBLAIN;21 Rue des Buzardières;02 40 38 30 51;www.saint-herblain.fr;44800;[ 47.2090571963456 , -1.65998367508502]
4947;Maternelle Stéphane Hessel;5;ENSEIGNEMENT;501;Maternelle;;;Public;ST-HERBLAIN;2 Rue du Docteur Alfred Corlay;;www.saint-herblain.fr;44800;[ 47.2082116738224 , -1.64669410952515]
4948;Maternelle Françoise Giroud;5;ENSEIGNEMENT;501;Maternelle;;;Public;ST-HERBLAIN;5 Chemin de la Solvardière;02 28 03 82 61;www.saint-herblain.fr;44800;[ 47.2173020684884 , -1.64187621373518]
5033;Primaire Yvonne et Alexandre Plancher;5;ENSEIGNEMENT;503;Primaire;;;Non Renseigné;REZE;3 Rue Georges Grille;;;44400;[ 47.1907310805622 , -1.57140576458628]
5034;Lycée Professionnel Léonard de Vinci;5;ENSEIGNEMENT;505;Lycée;;;Public;NANTES;31 Rue de la Bottière;;;44300;[ 47.2383732336614 , -1.52239310553938]
486;UFR de Droit;5;ENSEIGNEMENT;506;Supérieur;;;Public;NANTES;8 Chemin de la Censive du Tertre;02 40 14 15 15;www.univ-nantes.fr;44300;[ 47.2440450414866 , -1.55100145657789]
487;Faculté des Lettres et Sciences Humaines;5;ENSEIGNEMENT;506;Supérieur;;;Public;NANTES;16 Chemin de la Censive du Tertre;02 40 14 10 10;www.univ-nantes.fr;44300;[ 47.2455706823537 , -1.55067031353639]
490;Institut Français Recherche Exploitation Mer;5;ENSEIGNEMENT;508;Centre de recherche;;;Public;NANTES;4 Rue de l'Ile d'Yeu;02 40 37 40 00;www.ifremer.fr;44300;[ 47.2470000850226 , -1.54691289117152]
493;Institut Universitaire Formation des Maîtres;5;ENSEIGNEMENT;506;Supérieur;;;Public;NANTES;23 Rue Recteur Schmitt;02 40 74 25 10;www.pl.iufm.fr/sites/nantes/nantes.htm;44300;[ 47.2508676479668 , -1.55300429750414]
494;Conservatoire National Arts et Métiers;5;ENSEIGNEMENT;506;Supérieur;;;Public;NANTES;25 Boulevard Guy Mollet;02 40 16 10 10;www.cnam-paysdelaloire.fr;44300;[ 47.2504962425346 , -1.5545441113589]
495;Institut Régional d'Administration;5;ENSEIGNEMENT;506;Supérieur;;;Public;NANTES;1 Rue de la Bourgeonnière;02 40 74 34 77;www.ira-nantes.gouv.fr;44300;[ 47.2516613755122 , -1.55023731625197]
503;Centre Scientifique Technique Bâtiment;5;ENSEIGNEMENT;508;Centre de recherche;;;Public;NANTES;11 Rue Henri Picherit;02 40 37 20 00;www.cstb.fr;44300;[ 47.2550857107483 , -1.55437296774524]
504;Maternelle Elémentaire Sainte Claire d'Assise;5;ENSEIGNEMENT;503;Primaire;;;Privé;NANTES;70 Rue de la Bourgeonnière;02 40 76 77 26;;44300;[ 47.2534926689552 , -1.55722156846442]
506;Maternelle Le Baut;5;ENSEIGNEMENT;501;Maternelle;;;Public;NANTES;2T Rue des Renards;02 40 76 80 50;;44300;[ 47.2539862477641 , -1.56259102974462]
507;Lycée Professionnel La Chauvinière;5;ENSEIGNEMENT;505;Lycée;;;Public;NANTES;2 Rue de la Fantaisie;02 40 16 71 35;;44300;[ 47.2524955193136 , -1.57162920806731]
508;Maternelle La Chauvinière;5;ENSEIGNEMENT;501;Maternelle;;;Public;NANTES;32 Boulevard de la Chauvinière;02 40 76 60 76;;44300;[ 47.2529142210335 , -1.57397108669]
509;Lycée Gaspard Monge;5;ENSEIGNEMENT;505;Lycée;;;Public;NANTES;2 Rue de la Fantaisie;02 40 16 71 00;;44300;[ 47.2541944833231 , -1.57325271873319]
510;Elémentaire George Sand;5;ENSEIGNEMENT;502;Elémentaire;;;Public;NANTES;83 Rue des Renards;02 40 76 59 61;;44300;[ 47.2592130387613 , -1.56927623879586]
511;Maternelle Camille Claudel;5;ENSEIGNEMENT;501;Maternelle;;;Public;NANTES;83 Rue des Renards;02 40 76 10 75;;44300;[ 47.2583308306106 , -1.56922820654123]
512;Lycée Professionnel Etablissement Régional enseignement Adapté;5;ENSEIGNEMENT;505;Lycée;;;Public;NANTES;10 Boulevard Albert Einstein;02 40 76 40 05;;44300;[ 47.26112824581 , -1.56071420550939]
513;Collège Stendhal;5;ENSEIGNEMENT;504;Collège;;;Public;NANTES;88 Rue des Renards;02 51 83 71 00;;44300;[ 47.261197542487 , -1.56993996433992]
514;Maternelle Georges Brassens;5;ENSEIGNEMENT;501;Maternelle;;;Public;NANTES;19 Rue Eugène Thomas;02 40 76 10 12;;44300;[ 47.2620009973366 , -1.57122290073319]
515;Institut National Recherche Agronomique;5;ENSEIGNEMENT;508;Centre de recherche;;;Public;NANTES;63 Rue de la Geraudiere;02 40 67 50 00;www.nantes.inra.fr;44300;[ 47.2642184079554 , -1.56647273059533]
519;Primaire Françoise Dolto;5;ENSEIGNEMENT;503;Primaire;;;Public;NANTES;11 Rue de Concarneau;02 40 40 68 97;;44300;[ 47.2654921343449 , -1.57992088403673]
521;Maternelle Elémentaire Notre Dame de Lourdes;5;ENSEIGNEMENT;503;Primaire;;;Privé;NANTES;3 Rue Jean Baptiste Olivaux;02 40 94 44 35;;44300;[ 47.2513108560277 , -1.57563818991349]
523;Maternelle Côte d'Or;5;ENSEIGNEMENT;501;Maternelle;;;Public;NANTES;3 Avenue Castellano;02 40 40 81 90;;44300;[ 47.2472158491507 , -1.57286136148216]
525;Collège Hector Berlioz;5;ENSEIGNEMENT;504;Collège;;;Public;NANTES;122 Boulevard Robert Schuman;02 40 16 03 70;;44300;[ 47.2404620425718 , -1.57174102019976]
526;Ecole Nationale Supérieure d'Architecture de Nantes;5;ENSEIGNEMENT;506;Supérieur;;;Public;NANTES;6 Quai François Mitterrand;02 40 16 01 21;ensanantes.fr;44200;[ 47.207060203316 , -1.55740687309691]
527;Lycée La Perverie;5;ENSEIGNEMENT;505;Lycée;;;Privé;NANTES;63 Rue de la Perverie;02 40 14 53 70;perverie.free.fr;44300;[ 47.2421855701218 , -1.56280450109139]
529;Maternelle Georges Lafont;5;ENSEIGNEMENT;501;Maternelle;;;Public;NANTES;56 Rue Georges Lafont;02 40 76 85 84;;44300;[ 47.2376936089724 , -1.58275641116588]
531;Maternelle Elémentaire Sainte Thérèse;5;ENSEIGNEMENT;503;Primaire;;;Privé;NANTES;11 Rue de la Papotière;02 40 49 53 89;;44300;[ 47.2368567191976 , -1.50252000559933]
532;Maternelle Maurice Macé;5;ENSEIGNEMENT;501;Maternelle;;;Public;NANTES;22 Rue du Pontereau;02 40 50 20 60;;44300;[ 47.2369045337355 , -1.50416744022423]
534;Lycée La Colinière;5;ENSEIGNEMENT;505;Lycée;;;Public;NANTES;129 Rue du Landreau;02 40 93 93 33;perso.wanadoo.fr/lycee.lacoliniere;44300;[ 47.2361682369138 , -1.51305666161693]
535;Collège La Colinière;5;ENSEIGNEMENT;504;Collège;;;Public;NANTES;129 Rue du Landreau;02 40 93 93 33;;44300;[ 47.2348556039066 , -1.51417665665173]
536;Elémentaire Ange Guépin;5;ENSEIGNEMENT;502;Elémentaire;;;Public;NANTES;4 Rue de la Révolution des Oeillets;02 40 49 01 46;www.nantes.fr;44000;[ 47.2176082410212 , -1.5191304391889]
537;Maternelle Jean Moulin;5;ENSEIGNEMENT;501;Maternelle;;;Public;NANTES;5 Rue de Chypre;02 40 89 69 98;;44000;[ 47.2157162684779 , -1.52332715156405]
539;Maternelle Henri Bergson;5;ENSEIGNEMENT;501;Maternelle;;;Public;NANTES;5 Rue de Madrid;02 40 89 66 83;www.nantes.fr;44000;[ 47.2141858427228 , -1.53136654985139]
540;Collège Sophie Germain;5;ENSEIGNEMENT;504;Collège;;;Public;NANTES;19 Mail Pablo Picasso;02  4047 88 19;;44000;[ 47.2149220009438 , -1.53598182734332]
541;Maternelle Elémentaire Notre Dame de Toutes Aides;5;ENSEIGNEMENT;503;Primaire;;;Privé;NANTES;8 Rue Denis Papin;02 40 49 70 19;ndtaides.free.fr;44000;[ 47.2232814443904 , -1.52176242998019]
542;Maternelle Louis Guiotton;5;ENSEIGNEMENT;501;Maternelle;;;Public;NANTES;5 Rue Champenois;02 40 49 42 10;;44000;[ 47.2255957685757 , -1.52741035728538]
543;Elémentaire Champenois;5;ENSEIGNEMENT;502;Elémentaire;;;Public;NANTES;8 Rue Champenois;02 40 49 37 66;;44000;[ 47.2256367941699 , -1.52639844649917]
544;Primaire Gay-Lussac;5;ENSEIGNEMENT;503;Primaire;;;Public;NANTES;13 Rue Corentin Bourveau;02 40 52 12 73;;44300;[ 47.2277917634535 , -1.52164170182531]
545;Maternelle Elémentaire Notre Dame de Toutes Aides;5;ENSEIGNEMENT;503;Primaire;;;Privé;NANTES;33 Boulevard Louis Millet;02 40 49 04 52;ndtaides.free.fr/louismillet;44300;[ 47.2275066087489 , -1.51928617141244]
546;Lycée Notre Dame de Toutes Aides;5;ENSEIGNEMENT;505;Lycée;;;Privé;NANTES;33 Boulevard Louis Millet;02 40 49 37 93;www.multimania.com/ndtoutesaides;44300;[ 47.2283759657465 , -1.51886212094555]
547;Lycée de Bretagne;5;ENSEIGNEMENT;505;Lycée;;;Privé;NANTES;15 Rue du Landreau;02 40 49 21 57;;44300;[ 47.2325553344221 , -1.52049010083744]
549;Maternelle Bottière;5;ENSEIGNEMENT;501;Maternelle;;;Public;NANTES;14 Rue de la Bottière;02 40 49 57 04;;44300;[ 47.2372906949286 , -1.52215738261774]
550;Pôle des Arts Graphiques - Ecole des Métiers de l'Imprimerie;5;ENSEIGNEMENT;507;Centre de formation;;;Privé;NANTES;1 Place Albert Camus;02 40 50 24 22;www.ecole-metiers-imprimerie.fr;44200;[ 47.2055597895866 , -1.5622702482117]
551;Maternelle Agenêts;5;ENSEIGNEMENT;501;Maternelle;;;Public;NANTES;31 Rue des Agenets;02 40 93 18 02;;44000;[ 47.22775600044 , -1.53124906553749]
553;Maternelle Docteur Teillais;5;ENSEIGNEMENT;501;Maternelle;;;Public;NANTES;21 Rue Docteur Teillais;02 40 49 60 56;;44300;[ 47.2346857629739 , -1.53302205687295]
554;Elémentaire François Dallet;5;ENSEIGNEMENT;502;Elémentaire;;;Public;NANTES;148 Boulevard des Poilus;02 40 49 53 26;;44300;[ 47.2338154250183 , -1.53358100424571]
555;Elémentaire Don Bosco;5;ENSEIGNEMENT;502;Elémentaire;;;Privé;NANTES;9 Rue du Moulin des Carmes;02 40 49 79 27;;44300;[ 47.2382705679142 , -1.53368550960205]
556;Collège Blanche de Castille;5;ENSEIGNEMENT;504;Collège;;;Privé;NANTES;45 Boulevard Jules Verne;02 40 52 54 60;www.blanchedecastille.com;44300;[ 47.2369665531146 , -1.53481070737766]
557;Lycée Blanche de Castille;5;ENSEIGNEMENT;505;Lycée;;;Privé;NANTES;45 Boulevard Jules Verne;02 40 52 54 60;www.blanchedecastille.com;44300;[ 47.2368166310224 , -1.53536215108221]
558;Maternelle Elémentaire Saint Joseph;5;ENSEIGNEMENT;503;Primaire;;;Privé;NANTES;63B Rue d'Allonville;02 40 74 64 73;;44000;[ 47.2224606991267 , -1.5340966471082]
559;Maternelle Stalingrad;5;ENSEIGNEMENT;501;Maternelle;;;Public;NANTES;6 Allée du Bourg Fumé;02 40 74 30 01;;44000;[ 47.2196799664237 , -1.53788253207018]
560;Lycée Georges Clemenceau;5;ENSEIGNEMENT;505;Lycée;;;Public;NANTES;1 Rue Georges Clemenceau;02 51 81 86 10;;44000;[ 47.2189135151105 , -1.54516128099594]
561;Maternelle Elémentaire Sainte Marie;5;ENSEIGNEMENT;503;Primaire;;;Privé;NANTES;9 Avenue Bascher;02 40 74 02 38;;44000;[ 47.2225081414702 , -1.54586374480507]
562;Institut Universitaire de Technologie (IUT) GEA/informatique;5;ENSEIGNEMENT;506;Supérieur;;;Public;NANTES;3 Rue Maréchal Joffre;02 40 30 60 90;www.iut-nantes.univ-nantes.fr;44000;[ 47.2231220333011 , -1.5454574523612]
564;Ecole de Notariat;5;ENSEIGNEMENT;506;Supérieur;;;Privé;NANTES;119 Rue de Coulmiers;02 40 74 08 76;www.notaires.fr;44000;[ 47.2255301745875 , -1.54145628766822]
565;Lycée Eugène Livet;5;ENSEIGNEMENT;505;Lycée;;;Public;NANTES;16 Rue Dufour;02 51 81 23 23;;44000;[ 47.2249910114744 , -1.54617187882003]
567;Maternelle Sully;5;ENSEIGNEMENT;501;Maternelle;;;Public;NANTES;8 Allée de la Reine Margot;02 51 86 43 03;;44000;[ 47.2227747170009 , -1.54964957460939]
568;Collège Saint Jean Baptiste de la Salle;5;ENSEIGNEMENT;504;Collège;;;Privé;NANTES;136 Rue Général Buat;02 51 86 06 10;;44000;[ 47.2277458511241 , -1.5421971926295]
570;Primaire Saint Donatien;5;ENSEIGNEMENT;503;Primaire;;;Privé;NANTES;61B Rue du Coudray;02 40 74 36 48;;44000;[ 47.2303019028724 , -1.54382085889279]
571;Lycée Professionnel Saint Donatien , Immaculée;5;ENSEIGNEMENT;505;Lycée;;;Privé;NANTES;6 Rue Guillet de la Brosse;02 40 74 50 48;;44000;[ 47.2298467036494 , -1.5437245089925]
572;Maternelle Coudray;5;ENSEIGNEMENT;501;Maternelle;;;Public;NANTES;2 Rue Pierre Benoit;02 40 49 77 10;;44000;[ 47.2341625203016 , -1.5432566812029]
573;Elémentaire Coudray;5;ENSEIGNEMENT;502;Elémentaire;;;Public;NANTES;20 Rue du Coudray;02 40 49 43 35;;44000;[ 47.2332357110773 , -1.54338305920416]
575;Elémentaire Emile Péhant;5;ENSEIGNEMENT;502;Elémentaire;;;Public;NANTES;24 Rue Emile Péhant;02 40 47 90 23;www.ecoles.mairie-nantes.fr;44000;[ 47.2125926608273 , -1.54837185848601]
576;Maternelle Emile Péhant;5;ENSEIGNEMENT;501;Maternelle;;;Public;NANTES;21 Rue Emile Péhant;02 40 47 64 15;;44000;[ 47.2116029748848 , -1.54898432263239]
578;Faculté de Médecine et de Pharmacie;5;ENSEIGNEMENT;506;Supérieur;;;Public;NANTES;1 Rue Gaston Veil;02 40 41 28 28;www.sante.univ-nantes.fr;44000;[ 47.2112535316341 , -1.55539323785025]
579;Maternelle Molière;5;ENSEIGNEMENT;501;Maternelle;;;Public;NANTES;2 Rue du Cheval Blanc;02 40 47 51 02;;44000;[ 47.2174290022262 , -1.55577902724396]
580;Elémentaire Léon Blum;5;ENSEIGNEMENT;502;Elémentaire;;;Public;NANTES;5 Rue Léon Blum;02 40 47 43 63;;44000;[ 47.2189732470659 , -1.55613565228919]
581;Centre National Fonction Publique Territoriale;5;ENSEIGNEMENT;507;Centre de formation;;;Public;NANTES;29 Boulevard Albert Einstein;02 40 89 35 97;www.cnfpt.fr;44300;[ 47.2633977743024 , -1.57030791192017]
582;Ecole Supérieure des Beaux-Arts de Nantes Métropole;5;ENSEIGNEMENT;506;Supérieur;;;Public;NANTES;5 Rue Fénelon;02 40 35 90 20;www.esba-nantes.fr;44000;[ 47.2168026880714 , -1.55392954963965]
585;Lycée Saint Stanislas;5;ENSEIGNEMENT;505;Lycée;;;Privé;NANTES;2 Rue Saint Stanislas;02 40 20 17 50;www.oceanet.fr/Associations/ststanislas;44000;[ 47.2235930680219 , -1.55603014666437]
587;Maternelle Fellonneau;5;ENSEIGNEMENT;501;Maternelle;;;Public;NANTES;15 Rue Fellonneau;02 40 74 22 59;;44000;[ 47.2315852967394 , -1.55505196911441]
588;Maternelle Elémentaire Saint Félix;5;ENSEIGNEMENT;503;Primaire;;;Privé;NANTES;2 Rue Soubzmain;02 40 74 12 97;;44000;[ 47.2319429012538 , -1.55816916439708]
589;Lycée Technique Saint Jean Baptiste de la Salle;5;ENSEIGNEMENT;505;Lycée;;;Privé;NANTES;14 Rue du Ballet;02 40 74 78 31;lt-delasalle.fr;44000;[ 47.2320647116796 , -1.55948766072506]
591;Lycée Saint Félix;5;ENSEIGNEMENT;505;Lycée;;;Privé;NANTES;27 Rue du Ballet;02 40 14 50 50;www.oceanet.fr/Entreprises/feliweb;44000;[ 47.2316433015121 , -1.56049988203358]
592;Primaire Villa Maria;5;ENSEIGNEMENT;503;Primaire;;;Public;NANTES;12 Rue Villa Maria;02 40 29 03 29;;44000;[ 47.2307812854358 , -1.56149030045079]
593;Primaire Charles Lebourg;5;ENSEIGNEMENT;503;Primaire;;;Public;NANTES;5 Rue Charles Lebourg;02 40 74 05 39;;44300;[ 47.2339544576453 , -1.56063543918018]
594;Lycée Professionnel Michelet;5;ENSEIGNEMENT;505;Lycée;;;Public;NANTES;41 Boulevard Michelet;02 40 74 95 31;;44300;[ 47.2357585364338 , -1.55784644274806]
597;Centre National Recherche Scientifique;5;ENSEIGNEMENT;508;Centre de recherche;;;Public;NANTES;38 Boulevard Michelet;02 51 81 05 75;www.cnrs.fr;44300;[ 47.2355482846872 , -1.55521978005962]
599;Faculté des Sciences et des Techniques;5;ENSEIGNEMENT;506;Supérieur;;;Public;NANTES;2 Chemin de la Houssinière;02 51 12 52 12;www.sciences.univ-nantes.fr;44300;[ 47.23792477279 , -1.55433205339395]
600;Collège Saint Joseph du Loquidy;5;ENSEIGNEMENT;504;Collège;;;Privé;NANTES;73 Boulevard Michelet;02 40 74 03 12;;44300;[ 47.2362139141037 , -1.55720383394619]
601;Maternelle Léon Say;5;ENSEIGNEMENT;501;Maternelle;;;Public;NANTES;44 Rue Léon Say;02 40 76 88 05;;44000;[ 47.2295153425123 , -1.57078298790856]
602;Maternelle Elémentaire Jean XXIII;5;ENSEIGNEMENT;503;Primaire;;;Privé;NANTES;25 Rue Alphonse Daudet;02 40 74 48 24;;44000;[ 47.2274665734139 , -1.56566580194517]
603;Collège Saint Similien de Monfort;5;ENSEIGNEMENT;504;Collège;;;Privé;NANTES;26B Rue des Hauts Pavés;02 40 20 35 81;;44000;[ 47.2238001196443 , -1.56327403407358]
604;Primaire Rue Noire;5;ENSEIGNEMENT;503;Primaire;;;Public;NANTES;45 Rue Noire;02 40 74 21 88;;44000;[ 47.2248604215664 , -1.56396307017681]
606;Collège Victor Hugo;5;ENSEIGNEMENT;504;Collège;;;Public;NANTES;40 Rue de Bel Air;02 40 20 17 20;;44000;[ 47.2233017064632 , -1.55884037423767]
607;Lycée TechniqueTalensac;5;ENSEIGNEMENT;505;Lycée;;;Privé;NANTES;18 Rue de Talensac;02 51 72 95 10;;44000;[ 47.2220045402852 , -1.5588698245193]
608;Maternelle Frédureau;5;ENSEIGNEMENT;501;Maternelle;;;Public;NANTES;2 Rue Frédureau;02 40 20 17 43;;44000;[ 47.2211004519618 , -1.56127545950482]
609;Elémentaire Jean Jaurès;5;ENSEIGNEMENT;502;Elémentaire;;;Public;NANTES;11 Rue Jean Jaurès;02 40 20 38 92;;44000;[ 47.2193832189496 , -1.55999903978992]
611;Collège Sainte Catherine de Sienne hors contrat;5;ENSEIGNEMENT;504;Collège;;;Privé;NANTES;32 Rue de la Bastille;02 40 20 22 01;;44000;[ 47.2190363251207 , -1.56640851345112]
614;Maternelle Elémentaire Saint Nicolas;5;ENSEIGNEMENT;503;Primaire;;;Privé;NANTES;5 Rue Dugommier;02 40 48 73 09;;44000;[ 47.2159927724657 , -1.56244693738169]
615;Collège Notre Dame du Bon Conseil;5;ENSEIGNEMENT;504;Collège;;;Privé;NANTES;17 Rue du Chapeau Rouge;02 40 48 25 36;;44000;[ 47.2150070114804 , -1.56171879504202]
616;Maternelle Chêne d'Aron;5;ENSEIGNEMENT;501;Maternelle;;;Public;NANTES;4 Rue du Chêne d'Aron;02 40 48 70 68;;44000;[ 47.2119864084826 , -1.56057006908489]
617;Lycée Jules Verne;5;ENSEIGNEMENT;505;Lycée;;;Public;NANTES;1 Rue Général Meusnier;02 40 12 27 12;;44000;[ 47.2173060276682 , -1.56165967788821]
618;Collège Jules Verne;5;ENSEIGNEMENT;504;Collège;;;Public;NANTES;1 Rue Général Meusnier;02 40 12 27 12;;44000;[ 47.2173919753679 , -1.56144860757936]
619;Ecole Nationale Supérieure Maritime;5;ENSEIGNEMENT;506;Supérieur;;;Public;NANTES;38 Rue Gabriel Péri;02 40 71 01 80;www.supmaritime.fr/les-sites-ensm/nantes.html;44100;[ 47.2073895918303 , -1.57539105613052]
621;Elémentaire André Lermite;5;ENSEIGNEMENT;502;Elémentaire;;;Public;NANTES;1 Rue Evariste Luminais;02 40 69 85 14;www.ecoles.mairie-nantes.fr;44100;[ 47.2121479909183 , -1.57088675619118]
622;Maternelle Elémentaire Notre Dame de Bon Port;5;ENSEIGNEMENT;503;Primaire;;;Privé;NANTES;25 Rue de la Rosière d'Artois;02 40 69 33 27;;44100;[ 47.2134523601303 , -1.5674183475659]
623;Maternelle Boccage;5;ENSEIGNEMENT;501;Maternelle;;;Public;NANTES;44 Rue Marie Anne du Boccage;02 40 69 17 43;;44000;[ 47.2149098693289 , -1.57270364706781]
624;Elémentaire Boccage;5;ENSEIGNEMENT;502;Elémentaire;;;Public;NANTES;22B Rue Marie Anne du Boccage;02 40 73 38 85;;44000;[ 47.2156338318123 , -1.57071970058403]
625;Maternelle Elémentaire Saint Michel;5;ENSEIGNEMENT;503;Primaire;;;Privé;NANTES;15 Rue Marie Anne du Boccage;02 40 73 29 35;;44000;[ 47.2149136548051 , -1.57031271786342]
626;Lycée Gabriel Guist'hau;5;ENSEIGNEMENT;505;Lycée;;;Public;NANTES;3 Rue Marie Anne du Boccage;02 51 84 82 23;ecole.wanadoo.fr/lycee.guisthau;44000;[ 47.2161776212199 , -1.56881548785458]
627;Collège Gabriel Guist'hau;5;ENSEIGNEMENT;504;Collège;;;Public;NANTES;3 Rue Marie Anne du Boccage;02 51 84 82 24;;44000;[ 47.2162995465178 , -1.56850526814371]
628;Lycée Françoise d'Amboise Chavagnes;5;ENSEIGNEMENT;505;Lycée;;;Privé;NANTES;11 Rue Mondésir;02 51 84 91 30;http://www.chavagnes.com/;44000;[ 47.2176605386871 , -1.56995775586302]
631;Lycée Externat des Enfants Nantais;5;ENSEIGNEMENT;505;Lycée;;;Privé;NANTES;31 Avenue Camus;02 40 20 00 60;;44000;[ 47.218779484162 , -1.57247589544074]
632;Collège Externat des Enfants Nantais;5;ENSEIGNEMENT;504;Collège;;;Privé;NANTES;31 Avenue Camus;02 40 20 00 60;;44000;[ 47.2189415463442 , -1.57279377912808]
635;Maternelle Elémentaire Notre Dame de Toutes Joies;5;ENSEIGNEMENT;503;Primaire;;;Privé;NANTES;42 Boulevard Albert Thomas;02 40 76 95 15;;44000;[ 47.2236040638349 , -1.57662166065274]
636;Collège Gaston Serpette;5;ENSEIGNEMENT;504;Collège;;;Public;NANTES;12 Rue Docteur Rappin;02 40 76 57 85;;44000;[ 47.2269233347966 , -1.57663355561351]
637;Maternelle Plantes;5;ENSEIGNEMENT;501;Maternelle;;;Public;NANTES;19 Rue des Plantes;02 40 40 81 68;;44100;[ 47.2339419127458 , -1.58339904029574]
638;Primaire Sainte Agnès;5;ENSEIGNEMENT;503;Primaire;;;Privé;NANTES;51 Rue Chanoine Larose;02 51 83 65 55;ecolesainteagnes1.free.fr;44100;[ 47.2319498539504 , -1.5789749226999]
639;Collège Théophane Vénard;5;ENSEIGNEMENT;504;Collège;;;Privé;NANTES;55 Rue Chanoine Larose;02 51 83 65 55;tvenard.loire-atlantique.e-lyco.fr;44100;[ 47.2324355582589 , -1.57904233810268]
640;Maternelle Jacques Prévert;5;ENSEIGNEMENT;501;Maternelle;;;Public;NANTES;38 Rue du Breil;02 40 40 20 85;;44100;[ 47.2300045765266 , -1.58333959113466]
641;Elémentaire Jacques Prévert;5;ENSEIGNEMENT;502;Elémentaire;;;Public;NANTES;38 Rue du Breil;02 40 76 41 52;;44100;[ 47.2297548043657 , -1.58409482983182]
648;Elémentaire Mulotière;5;ENSEIGNEMENT;502;Elémentaire;;;Public;NANTES;16 Rue Pierre Yvernogeau;02 40 76 49 65;www.nantes.fr;44300;[ 47.2420388161765 , -1.56994562842241]
649;Lycée Professionnelle de la Coiffure Pierre Masson;5;ENSEIGNEMENT;505;Lycée;;;Privé;NANTES;14 Rue d'Alger;02 40 71 06 52;;44100;[ 47.2104679135753 , -1.56790531303718]
650;Lycée Professionnel Talensac;5;ENSEIGNEMENT;505;Lycée;;;Privé;NANTES;18 Rue de Talensac;;;44000;[ 47.2219853921852 , -1.55863151478325]
651;Lycée Professionnel François Arago;5;ENSEIGNEMENT;505;Lycée;;;Public;NANTES;23 Rue Recteur Schmitt;02 40 74 25 10;;44300;[ 47.2507257576709 , -1.55260468479964]
667;Institut de l'Homme et de la Technologie Atlantech;5;ENSEIGNEMENT;508;Centre de recherche;;;Public;NANTES;5 Rue Christian Pauc;02 51 85 74 00;www.iht.atlantech.fr;44300;[ 47.2835785361698 , -1.51599700597962]
681;Collège La Noë Lambert;5;ENSEIGNEMENT;504;Collège;;;Public;NANTES;42 Boulevard des Poilus;02 40 49 46 42;lanoelambert.loire-atlantique.e-lyco.fr;44300;[ 47.2318271293162 , -1.526984779768]
682;Lycée Professionnel Les Bourdonnières;5;ENSEIGNEMENT;505;Lycée;;;Public;NANTES;6 Rue de la Perrière;02 40 34 02 60;bourdonnieres.paysdelaloire.e-lyco.fr;44200;[ 47.185268405608 , -1.51811786887319]
683;Lycée Notre Dame de l'Abbaye;5;ENSEIGNEMENT;505;Lycée;;;Privé;NANTES;38B Rue de l'Abbaye;02 40 58 67 83;;44100;[ 47.2008725399245 , -1.59578041472357]
684;Collège Notre Dame de l'Abbaye;5;ENSEIGNEMENT;504;Collège;;;Privé;NANTES;38B Rue de l'Abbaye;02 40 58 67 83;;44100;[ 47.2004725619815 , -1.59563711428482]
686;Maternelle Elémentaire Diwan Bro Naoned;5;ENSEIGNEMENT;503;Primaire;;;Privé;NANTES;164 Rue du Corps de Garde;02 40 29 04 15;;44100;[ 47.2196280223231 , -1.60208521828833]
690;Ecole des Mines;5;ENSEIGNEMENT;506;Supérieur;;;Public;NANTES;4 Rue Alfred Kastler;02 51 85 81 00;www.emn.fr;44300;[ 47.2824239558764 , -1.52088126242297]
749;Ecole Nantaise de Commerce;5;ENSEIGNEMENT;506;Supérieur;;;Privé;NANTES;6 Rue Crébillon;02 40 48 40 24;www.enacom.fr;44000;[ 47.2140903824872 , -1.55976094440709]
752;Lycée Saint Joseph du Loquidy;5;ENSEIGNEMENT;505;Lycée;;;Privé;NANTES;73 Boulevard Michelet;02 40 74 03 12;perso.wanadoo.fr/loquidy;44300;[ 47.2366410919951 , -1.55719088916906]
1142;Maternelle Lamoricière;5;ENSEIGNEMENT;501;Maternelle;;;Public;NANTES;14 Rue Lamoricière;02 40 73 95 47;;44100;[ 47.2124969044499 , -1.57125379595902]
1153;Elémentaire Alain Fournier;5;ENSEIGNEMENT;502;Elémentaire;;;Public;NANTES;87 Rue du Bois Hardy;02 40 46 28 53;;44100;[ 47.2040831661045 , -1.60104653207571]
1154;Elémentaire Agenêts;5;ENSEIGNEMENT;502;Elémentaire;;;Public;NANTES;31 Rue des Agenets;02 51 13 20 80;;44000;[ 47.2280026698464 , -1.53078257512124]
1156;Maternelle Barberie;5;ENSEIGNEMENT;501;Maternelle;;;Public;NANTES;25 Avenue de Tahiti;02 40 59 03 07;www.nantes.fr;44300;[ 47.2439527668333 , -1.57122696915566]
1157;Elémentaire Batignolles;5;ENSEIGNEMENT;502;Elémentaire;;;Public;NANTES;45 Route de Paris;02 40 49 51 89;;44300;[ 47.2525680464208 , -1.51854629292692]
1158;Elémentaire Beaujoire;5;ENSEIGNEMENT;502;Elémentaire;;;Public;NANTES;10 Avenue de la Gare de Saint Joseph;02 40 50 57 13;;44300;[ 47.2578749670883 , -1.51946479932758]
1159;Maternelle Elémentaire Blanche de Castille;5;ENSEIGNEMENT;503;Primaire;;;Privé;NANTES;45 Boulevard Jules Verne;02 40 49 62 56;;44300;[ 47.2366864802485 , -1.53431873318368]
1160;Elémentaire Bottière;5;ENSEIGNEMENT;502;Elémentaire;;;Public;NANTES;10 Rue de la Bottière;02 40 49 32 77;;44300;[ 47.237384320653 , -1.52282878634449]
1161;Collège de Bretagne;5;ENSEIGNEMENT;504;Collège;;;Privé;NANTES;15 Rue du Landreau;02 40 49 21 57;;44300;[ 47.2327444345181 , -1.52031623063453]
1163;Elémentaire Châtaigniers;5;ENSEIGNEMENT;502;Elémentaire;;;Public;NANTES;164 Rue du Corps de Garde;02 40 46 31 05;;44100;[ 47.2197827467309 , -1.60215424741396]
1164;Elémentaire La Chauvinière;5;ENSEIGNEMENT;502;Elémentaire;;;Public;NANTES;32 Boulevard de la Chauvinière;02 40 59 03 79;www.ecoles.mairie-nantes.fr;44300;[ 47.2534657207306 , -1.5741540179739]
1165;Elémentaire Chêne d'Aron;5;ENSEIGNEMENT;502;Elémentaire;;;Public;NANTES;3 Rue de l'Héronnière;02 40 73 33 00;www.ecoles.mairie-nantes.fr;44000;[ 47.2122537316794 , -1.56120934356108]
1166;Primaire Jacques Tati;5;ENSEIGNEMENT;503;Primaire;;;Public;NANTES;1 Rue d'Ascain;02 40 34 54 18;www.ecoles.mairie-nantes.fr;44200;[ 47.1949063112794 , -1.52653721910085]
1167;Elémentaire Contrie;5;ENSEIGNEMENT;502;Elémentaire;;;Public;NANTES;19 Rue de la Petite Reine;02 40 46 49 88;;44100;[ 47.2157765065179 , -1.60007371323462]
1168;Elémentaire Dervallières Chézine;5;ENSEIGNEMENT;502;Elémentaire;;;Public;NANTES;1 Rue Auguste Lepère;02 40 46 03 83;www.ecoles.mairie-nantes.fr;44100;[ 47.2265615691657 , -1.59788809169881]
1171;Elémentaire Fellonneau;5;ENSEIGNEMENT;502;Elémentaire;;;Public;NANTES;15 Rue Fellonneau;02 40 74 04 72;;44000;[ 47.2321547084807 , -1.55472895556893]
1172;Elémentaire Gustave Roch;5;ENSEIGNEMENT;502;Elémentaire;;;Public;NANTES;24 Boulevard Gustave Roch;02 40 47 93 38;www.ecoles.mairie-nantes.fr;44200;[ 47.2051770968525 , -1.55068221653032]
1173;Maternelle Gaston Serpette;5;ENSEIGNEMENT;501;Maternelle;;;Public;NANTES;23 Rue Edmond Biré;02 40 76 07 11;;44000;[ 47.228014322276 , -1.57642179277179]
1174;Elémentaire Gaston Serpette;5;ENSEIGNEMENT;502;Elémentaire;;;Public;NANTES;46 Rue du Douet Garnier;02 40 76 74 04;www.ecoles.mairie-nantes.fr;44000;[ 47.2265457508509 , -1.57693913628893]
1176;Elémentaire Sully;5;ENSEIGNEMENT;502;Elémentaire;;;Public;NANTES;7 Rue Henri Cochard;02 51 86 44 96;;44000;[ 47.2229245149311 , -1.54916281897426]
1177;Elémentaire Jean Moulin;5;ENSEIGNEMENT;502;Elémentaire;;;Public;NANTES;5 Rue de Chypre;02 40 47 91 11;;44000;[ 47.2156061718442 , -1.52258040765671]
1180;Elémentaire Jean Zay;5;ENSEIGNEMENT;502;Elémentaire;;;Public;NANTES;19 Rue Yves Kartel;02 40 43 89 83;www.ecoles.mairie-nantes.fr;44100;[ 47.2092177938887 , -1.6079408418065]
1182;Elémentaire Louise Michel;5;ENSEIGNEMENT;502;Elémentaire;;;Public;NANTES;21 Rue Paul Ramadier;02 40 47 84 83;;44200;[ 47.2058391852535 , -1.53076962518963]
1183;Elémentaire Louis Pergaud;5;ENSEIGNEMENT;502;Elémentaire;;;Public;NANTES;6 Rue Louis Pergaud;02 40 30 20 85;www.ecoles.mairie-nantes.fr;44300;[ 47.2683692977203 , -1.51931504482704]
1184;Elémentaire Léon Say;5;ENSEIGNEMENT;502;Elémentaire;;;Public;NANTES;34 Rue Léon Say;02 40 76 51 40;www.ecoles.mairie-nantes.fr;44000;[ 47.2296909154185 , -1.57005917079975]
1185;Elémentaire Le Baut;5;ENSEIGNEMENT;502;Elémentaire;;;Public;NANTES;2T Rue des Renards;02 40 76 65 72;www.ecoles.mairie-nantes.fr;44300;[ 47.2541406879623 , -1.56216812403375]
1187;Elémentaire Le Linot;5;ENSEIGNEMENT;502;Elémentaire;;;Public;NANTES;45 Rue du Port des Charrettes;02 40 30 33 20;eepu-le-linot-44.ac-nantes.fr;44300;[ 47.2680764767796 , -1.52751299915447]
1188;Elémentaire Maurice Macé;5;ENSEIGNEMENT;502;Elémentaire;;;Public;NANTES;14 Rue du Pontereau;02 40 49 39 57;www.ecoles.mairie-nantes.fr;44300;[ 47.2369245691813 , -1.50456639144317]
1190;Elémentaire Marsauderies;5;ENSEIGNEMENT;502;Elémentaire;;;Public;NANTES;1 Rue de la Bertinière;02 40 49 31 20;www.ecoles.mairie-nantes.fr;44300;[ 47.2431925414488 , -1.52958707532894]
1193;Collège Notre Dame de Toutes Aides;5;ENSEIGNEMENT;504;Collège;;;Privé;NANTES;33 Boulevard Louis Millet;02 40 49 37 93;www.multimania.com/ndtoutesaides;44300;[ 47.2287248742004 , -1.51871418581438]
1195;Primaire Paul Gauguin;5;ENSEIGNEMENT;503;Primaire;;;Public;NANTES;20 Rue de la Coulée;02 51 89 73 40;www.nantes.fr;44300;[ 47.2602704630742 , -1.57696619264606]
1196;Elémentaire Plantes;5;ENSEIGNEMENT;502;Elémentaire;;;Public;NANTES;19 Rue des Plantes;02 40 76 90 26;;44100;[ 47.2343011948365 , -1.58326403269514]
1197;Elémentaire Plessis Cellier;5;ENSEIGNEMENT;502;Elémentaire;;;Public;NANTES;59 Rue des Alouettes;02 40 43 49 33;www.ecoles.mairie-nantes.fr;44100;[ 47.2013500836278 , -1.60632445819134]
1198;Elémentaire Lucie Aubrac;5;ENSEIGNEMENT;502;Elémentaire;;;Public;NANTES;47 Boulevard Jean Moulin;02 40 46 52 50;;44100;[ 47.2085211908765 , -1.59951301172358]
1199;Elémentaire Port Boyer;5;ENSEIGNEMENT;502;Elémentaire;;;Public;NANTES;53 Rue de l'Eraudière;02 40 49 02 07;;44300;[ 47.239937802192 , -1.54174629051165]
1200;Collège Libertaire Rutigliano;5;ENSEIGNEMENT;504;Collège;;;Public;NANTES;60 Rue de l'Eraudière;02 40 49 60 14;;44300;[ 47.240101629581 , -1.54023569897613]
1202;Collège Sacré Coeur;5;ENSEIGNEMENT;504;Collège;;;Privé;NANTES;13 Rue Giton;02 40 46 27 13;;44100;[ 47.2125611885212 , -1.58450695305203]
1203;Lycée Technique Saint Félix;5;ENSEIGNEMENT;505;Lycée;;;Privé;NANTES;27 Rue du Ballet;02 40 14 50 50;;44000;[ 47.2315444178922 , -1.56090457952964]
1204;Collège Saint Félix;5;ENSEIGNEMENT;504;Collège;;;Privé;NANTES;27 Rue du Ballet;02 40 14 50 50;www.oceanet.fr/Entreprises/feliweb;44000;[ 47.2312960466174 , -1.55994950067099]
1205;Maternelle Elémentaire Saint Pierre;5;ENSEIGNEMENT;503;Primaire;;;Privé;NANTES;9 Rue du Refuge;02 40 47 98 10;;44000;[ 47.2194408851469 , -1.55277607271826]
1206;Collège Saint Stanislas;5;ENSEIGNEMENT;504;Collège;;;Privé;NANTES;2 Rue Saint Stanislas;02 51 50 06 80;www.oceanet.fr/Associations/ststanislas;44000;[ 47.2238308575176 , -1.55586446371429]
1207;Elémentaire Stalingrad;5;ENSEIGNEMENT;502;Elémentaire;;;Public;NANTES;12 Boulevard de Stalingrad;02 40 74 38 64;www.ecoles.mairie-nantes.fr;44000;[ 47.219470401664 , -1.53779345981124]
1209;Primaire Sainte Madeleine;5;ENSEIGNEMENT;503;Primaire;;;Privé;NANTES;10 Quai Hoche;02 40 47 93 79;;44200;[ 47.2063886194802 , -1.5519472922464]
1211;Collège Rosa Parks;5;ENSEIGNEMENT;504;Collège;;;Public;NANTES;91 Boulevard Pierre de Coubertin;02 40 94 29 50;;44100;[ 47.2304494284151 , -1.59307660172956]
1212;Elémentaire Urbain Le Verrier;5;ENSEIGNEMENT;502;Elémentaire;;;Public;NANTES;11 Rue Urbain Le Verrier;02 40 49 62 72;www.ecoles.mairie-nantes.fr;44300;[ 47.2421340768273 , -1.52156499523898]
1214;Collège La Perverie;5;ENSEIGNEMENT;504;Collège;;;Privé;NANTES;63 Rue de la Perverie;02 40 14 53 70;perverie.free.fr;44300;[ 47.2420094958546 , -1.56221819885733]
1215;Maternelle Elémentaire La Perverie;5;ENSEIGNEMENT;503;Primaire;;;Privé;NANTES;59 Rue de la Perverie;02 40 74 58 45;perverie.free.fr;44300;[ 47.2416293977111 , -1.56221588825209]
1216;Centre de Formation Horticole;5;ENSEIGNEMENT;507;Centre de formation;;;Non Renseigné;NANTES;34 Chemin du Ponceau;02 40 49 39 98;;44300;[ 47.2261561460732 , -1.51195739846782]
1218;Ecole Technique d'Arts Appliqués Pivaut;5;ENSEIGNEMENT;506;Supérieur;;;Privé;NANTES;26 Rue Henri Cochard;02 40 29 15 92;;44000;[ 47.2234041294642 , -1.54911726334944]
1220;Institut des Métiers d'Enseignement Supérieur;5;ENSEIGNEMENT;506;Supérieur;;;Privé;NANTES;7 Rue de Bréa;02 51 84 52 52;www.ims-nantes.com;44000;[ 47.211195800991 , -1.56535086614685]
1225;Lycée Sainte Catherine de Sienne hors contrat;5;ENSEIGNEMENT;505;Lycée;;;Privé;NANTES;32 Rue de la Bastille;02 40 20 22 01;;44000;[ 47.21889602652 , -1.56634117046492]
1226;Primaire Maison Neuve;5;ENSEIGNEMENT;503;Primaire;;;Public;NANTES;5 Rue Eugénie Cotton;02 40 30 05 93;;44300;[ 47.259730961502 , -1.51657459181767]
1231;Elémentaire Henri Bergson;5;ENSEIGNEMENT;502;Elémentaire;;;Public;NANTES;5 Rue de Madrid;02 40 47 60 89;www.nantes.fr;44000;[ 47.2137225426264 , -1.53110874872523]
1232;Primaire Harouys;5;ENSEIGNEMENT;503;Primaire;;;Public;NANTES;12 Rue Harouys;02 40 20 08 22;;44000;[ 47.2181284282245 , -1.56501449651198]
1237;Ecole Centrale de Nantes;5;ENSEIGNEMENT;506;Supérieur;;;Public;NANTES;Rue de la Noë;02 40 37 16 00;www.ec-nantes.fr;44300;[ 47.2491193746626 , -1.54825763096979]
1241;Maternelle Elémentaire Sainte Catherine de Sienne;5;ENSEIGNEMENT;503;Primaire;;;Privé;NANTES;32 Rue de la Bastille;;;44000;[ 47.2191487879415 , -1.56646800975757]
1254;Lycée Professionnel Ecole Nantaise de Commerce d'Informatique et Administration;5;ENSEIGNEMENT;505;Lycée;;;Privé;NANTES;6 Rue Crébillon;02 40 48 40 24;www.enacom.fr;44000;[ 47.2141809754479 , -1.55971611849537]
1255;Ecole Nantaise Supérieure d'Enseignement Commerc. BTS;5;ENSEIGNEMENT;506;Supérieur;;;Privé;NANTES;1 Place de la Bourse;02 40 48 41 13;www.enacom.fr;44000;[ 47.2130130788382 , -1.55896937558884]
1256;Ecole internationale TUNON;5;ENSEIGNEMENT;506;Supérieur;;;Privé;NANTES;10 Rue Voltaire;02 40 73 65 29;;44000;[ 47.2125762253024 , -1.56426964028675]
1258;e-ARTSUP;5;ENSEIGNEMENT;506;Supérieur;;;Privé;NANTES;28 Rue Armand Brossard;02 40 89 07 52;www.e-artsup.net/ecole-e-artsup-nantes.aspx;44000;[ 47.218733424815 , -1.55615879261522]
1270;Institut Régional Formation aux Professions Santé ,Ecole Puéricultrices;5;ENSEIGNEMENT;506;Supérieur;;;Public;NANTES;50 Route de Saint Sébastien;02 40 84 68 14;www.chu-nantes.fr;44200;[ 47.198572996159 , -1.53022527092003]
1271;Ecole de Sages Femmes CHU;5;ENSEIGNEMENT;506;Supérieur;;;Public;NANTES;7 Quai Moncousu;02 40 38 33 33;www.chu-nantes.fr;44000;[ 47.2095691012972 , -1.55244667210769]
1272;Faculté d'Odontologie de Nantes;5;ENSEIGNEMENT;506;Supérieur;;;Public;NANTES;1 Place Alexis Ricordeau;02 40 41 29 21;www.sante.univ-nantes.fr;44000;[ 47.2118195171311 , -1.5536458385882]
1274;IDRAC - Ecole Supérieure de Communication;5;ENSEIGNEMENT;506;Supérieur;;;Privé;NANTES;11 Rue des Saumonières;02 40 29 38 14;;44300;[ 47.2547943874052 , -1.55220566582065]
1280;Centre Universitaire Formation Continue;5;ENSEIGNEMENT;507;Centre de formation;;;Non Renseigné;NANTES;2B Boulevard Léon Bureau;02 51 25 07 25;www.umedia.univ-nantes.fr;44200;[ 47.2058598707853 , -1.56549388081654]
1312;Ecole Supérieure du Bois;5;ENSEIGNEMENT;506;Supérieur;;;Public;NANTES;5 Rue Christian Pauc;02 40 48 12 12;www.euronature.com/bois;44300;[ 47.2837418201738 , -1.51496091214382]
1339;Ecole de Design Nantes Atlantique;5;ENSEIGNEMENT;506;Supérieur;;;Privé;NANTES;Rue Christian Pauc;02 51 13 50 70;www.lecolededesign.com;44300;[ 47.2833053544838 , -1.51779124256056]
1340;UFR Psychologie et Sociologie;5;ENSEIGNEMENT;506;Supérieur;;;Public;NANTES;11 Chemin de la Censive du Tertre;02 40 14 17 17;www.univ-nantes.fr;44300;[ 47.2449819899243 , -1.55259151168608]
1342;Sciences Techniques Activités Physiques Sportives;5;ENSEIGNEMENT;506;Supérieur;;;Public;NANTES;25B Boulevard Guy Mollet;02 51 83 72 00;www.sciences.univ-nantes.fr/STAPS;44300;[ 47.2516663323456 , -1.55562174198913]
1349;Fédération Compagnonique des Métiers du Bâtiment;5;ENSEIGNEMENT;507;Centre de formation;;;Non Renseigné;NANTES;29 Rue de l'Indre;02 40 47 48 13;www.compagnons.org;44000;[ 47.2140001709514 , -1.53759243373589]
1350;Association Nationale Formation Professionnelle Adultes Nord;5;ENSEIGNEMENT;507;Centre de formation;;;Non Renseigné;NANTES;4 Avenue Millet;02 51 86 08 50;www.afpa.fr;44000;[ 47.2206978136566 , -1.52943195881657]
1431;Ecole Régionale des Beaux Arts de Nantes (Annexe 1);5;ENSEIGNEMENT;506;Supérieur;;;Public;NANTES;2B Rue des Olivettes;;www.acad-beaux-arts.institut-de-france.fr;44000;[ 47.2123219817129 , -1.55034685099265]
1432;Ecole Régionale des Beaux Arts de Nantes (Annexe 2);5;ENSEIGNEMENT;506;Supérieur;;;Public;NANTES;3 Rue de la Commune;;www.acad-beaux-arts.institut-de-france.fr;44000;[ 47.2181845309669 , -1.55373150547977]
1545;Maternelle Jean Zay 2;5;ENSEIGNEMENT;501;Maternelle;;;Public;NANTES;19 Rue Yves Kartel;02 40 43 85 00;;44100;[ 47.2085772687533 , -1.60798642847999]
1551;Institut Formation Carrières Para Médicales BTS;5;ENSEIGNEMENT;506;Supérieur;;;Privé;NANTES;12 Rue Gaëtan Rondeau;02 40 47 67 28;;44200;[ 47.2064076521564 , -1.53613782226144]
1552;Centre de Ressources et de Formation;5;ENSEIGNEMENT;507;Centre de formation;;;Privé;NANTES;6 Rue de l'Etang;02 51 80 62 30;;44100;[ 47.2035562490469 , -1.6055121020513]
1553;Institut des Carrières Européennes de l'Expertise (ICEE);5;ENSEIGNEMENT;506;Supérieur;;;Privé;NANTES;15 Rue Monteil;02 40 35 36 37;www.icee.fr;44000;[ 47.2127469651411 , -1.54720873784084]
1554;Le Pont Supérieur ( Pole d'enseignement supérieur du spectacle vivant Bretagne P;5;ENSEIGNEMENT;506;Supérieur;;;Public;NANTES;32 Rue Emile Péhant;02 40 89 90 50;www.lepontsuperieur.eu;44000;[ 47.2120583777218 , -1.54957149207293]
1576;Association Nationale Formation Professionnelle Adultes;5;ENSEIGNEMENT;507;Centre de formation;;;Non Renseigné;NANTES;36 Rue Paul Bert;02 40 38 23 23;www.afpa.fr;44100;[ 47.2125147454673 , -1.59478900292605]
1577;Association Nationale  Formation Professionnelle Adultes Sud;5;ENSEIGNEMENT;507;Centre de formation;;;Non Renseigné;NANTES;1 Rue Esnoult des Châtelets;02 40 32 80 20;www.afpa.fr;44200;[ 47.1968186968208 , -1.54035393578444]
1603;Institut d'Economie et de Management de Nantes - IAE;5;ENSEIGNEMENT;506;Supérieur;;;Public;NANTES;8 Chemin de la Censive du Tertre;02 40 14 17 17;www.univ-nantes.fr;44300;[ 47.2440470332312 , -1.54912772599027]
1608;Sciences Com';5;ENSEIGNEMENT;506;Supérieur;;;Non Renseigné;NANTES;1 Rue Marivaux;02 40 44 90 00;www.sciencescom.asso.fr;44000;[ 47.2132383822837 , -1.56412676003426]
1609;Centre de Formation Technique Industriel La Salle;5;ENSEIGNEMENT;507;Centre de formation;;;Non Renseigné;NANTES;Impasse du Croisic;02 40 29 23 41;www.cfp-delasalle.com;44000;[ 47.2325848414609 , -1.55949869439401]
1611;Institut de Recherche en Informatique;5;ENSEIGNEMENT;506;Supérieur;;;Public;NANTES;2 Chemin de la Houssinière;02 40 37 49 01;www.sciences.univ-nantes.fr/info/recherche;44300;[ 47.2376767403581 , -1.55284992101918]
1612;Institut des Matériaux de Nantes Jean Rouxel;5;ENSEIGNEMENT;506;Supérieur;;;Non Renseigné;NANTES;2 Chemin de la Houssinière;02 40 37 39 39;www.cnrs-imn.fr;44300;[ 47.2358097576547 , -1.55492869579024]
1613;Centre de Formation des d'Apprentis;5;ENSEIGNEMENT;507;Centre de formation;;;Non Renseigné;NANTES;4 Rue Bisson;02 40 44 42 00;www.apprentis.com;44100;[ 47.2059052218308 , -1.57545016540317]
1623;Institut de Préparation à l'Administration Générale de Nantes;5;ENSEIGNEMENT;506;Supérieur;;;Privé;NANTES;Chemin de la Censive du Tertre;02 40 14 12 20;www.ipag.univ-nantes.fr;44300;[ 47.2441307942899 , -1.54985212172829]
1633;Institut Régional Formation aux Professions de Santé, Soins Infirmiers;5;ENSEIGNEMENT;506;Supérieur;;;Public;NANTES;50 Route de Saint Sébastien;;www.chu-nantes.fr;44200;[ 47.1990092097287 , -1.52994557515262]
1634;Institut Régional Formation aux Professions de Santé, Ecole d'Infirmier(e)s de B;5;ENSEIGNEMENT;506;Supérieur;;;Public;NANTES;50 Route de Saint Sébastien;02 40 84 67 45;www.chu-nantes.fr;44200;[ 47.198878345601 , -1.52995620816061]
1635;Institut Régional Formation aux Professions de Santé ,Cadres;5;ENSEIGNEMENT;506;Supérieur;;;Public;NANTES;50 Route de Saint Sébastien;;www.chu-nantes.fr;44200;[ 47.1983770629822 , -1.53043840883554]
1636;Institut Régional Formation aux Professions de Santé , Ecole Manipulation Electr;5;ENSEIGNEMENT;506;Supérieur;;;Public;NANTES;50 Route de Saint Sébastien;;www.chu-nantes.fr;44200;[ 47.198712753649 , -1.53009991606422]
1637;Institut Régional Formation aux Professions de Santé ,Ecole d'Auxiliaires de Pué;5;ENSEIGNEMENT;506;Supérieur;;;Public;NANTES;50 Route de Saint Sébastien;02 40 84 68 14;www.chu-nantes.fr;44200;[ 47.1982167240164 , -1.53051681659538]
1638;Institut Régional Formation aux Professions de Santé , Ecole d'Aides Soignant(e);5;ENSEIGNEMENT;506;Supérieur;;;Public;NANTES;50 Route de Saint Sébastien;02 40 84 68 08;www.chu-nantes.fr;44200;[ 47.1980836809504 , -1.53064873308948]
1639;Institut Régional Formation aux Professions de Santé , Centre de Formation d'Aid;5;ENSEIGNEMENT;506;Supérieur;;;Non Renseigné;NANTES;50 Route de Saint Sébastien;;www.chu-nantes.fr;44200;[ 47.1981607047199 , -1.53112592912281]
1640;Institut Régional Formation aux Professions de Santé , Ecole d'Ambulanciers;5;ENSEIGNEMENT;506;Supérieur;;;Public;NANTES;50 Route de Saint Sébastien;02 40 08 73 23;www.chu-nantes.fr;44200;[ 47.1980545098913 , -1.53150980495154]
1643;Institut de Recherche en Cybernétique de Nantes;5;ENSEIGNEMENT;508;Centre de recherche;;;Public;NANTES;Rue de la Noë;02 40 37 69 33;www.ircyn.prd.fr;44300;[ 47.2500372456433 , -1.54730022379966]
1650;Centre de Droit Maritime et Océanique;5;ENSEIGNEMENT;508;Centre de recherche;;;Public;NANTES;Chemin de la Censive du Tertre;02 40 14 15 34;www.univ-nantes.fr/;44300;[ 47.2444069124312 , -1.55103675126113]
1657;Ecole Nationale des Finances Publiques - Centre Interrégional de Formation, Ante;5;ENSEIGNEMENT;507;Centre de formation;;;Public;NANTES;10 Boulevard Gaston Doumergue;;;44200;[ 47.2073361017803 , -1.54446654146264]
1659;Fac de médecine-Département Enseignement Communic. Audiovisuels Santé;5;ENSEIGNEMENT;506;Supérieur;;;Public;NANTES;1 Rue Gaston Veil;02 40 44 28 28;www.sante.univ-nantes.fr/decas;44000;[ 47.2110721742791 , -1.55551474198752]
1741;Centre de Formation de la Profession Bancaire;5;ENSEIGNEMENT;507;Centre de formation;;;Non Renseigné;NANTES;12 Rue Gaëtan Rondeau;02 40 48 79 00;;44200;[ 47.2062890724092 , -1.53619294745244]
1744;Institut de Recherche de la Construction Navale;5;ENSEIGNEMENT;508;Centre de recherche;;;Public;NANTES;1 Rue de la Noë;02 40 14 34 00;;44300;[ 47.2491214540133 , -1.54981067318309]
1745;Institut de Géographie et d'Aménagement Régional (IGARUN) / Pole Audiovisuel Mul;5;ENSEIGNEMENT;508;Centre de recherche;;;Public;NANTES;Chemin de la Censive du Tertre;02 40 14 10 10;www.univ-nantes.fr;44300;[ 47.2461562732691 , -1.54937751162386]
1780;Centre Educatif Nantais pour Sportifs (CENS);5;ENSEIGNEMENT;506;Supérieur;;;Privé;LA-CHAPELLE-SUR-ERDRE;Route de la Jonelière;02 40 37 01 53;www.cens44.fr;44240;[ 47.2595823181918 , -1.54445053125963]
1781;Institut Régional de Médecine du Sport;5;ENSEIGNEMENT;506;Supérieur;;;Public;NANTES;1 Place Alexis Ricordeau;02 40 08 33 80;;44000;[ 47.2106612304693 , -1.55351803150719]
1869;Collège Le Hérault;5;ENSEIGNEMENT;504;Collège;;;Public;ST-HERBLAIN;1 Avenue Alain Gerbault;02 51 83 73 00;www.saint-herblain.fr;44800;[ 47.2359861283495 , -1.59756887466617]
1872;Ecole Polytechnique;5;ENSEIGNEMENT;506;Supérieur;;;Public;NANTES;Route de Gachet;02 40 68 32 00;www.polytech.univ-nantes.fr;44300;[ 47.2815266711437 , -1.51581959902763]
1882;Collège Gutenberg;5;ENSEIGNEMENT;504;Collège;;;Public;ST-HERBLAIN;Avenue de l'Angevinière;02 51 77 81 10;www.saint-herblain.fr;44800;[ 47.2466783288907 , -1.61167666500499]
117;CREPS Centre de Ressources d'Expertises et de Performances Sportives;5;ENSEIGNEMENT;506;Supérieur;;;Non Renseigné;NANTES;Place Gabriel Trarieux;02 51 89 16 30;;44300;[ 47.2263920731482 , -1.52285182087091]
138;Conservatoire de Nantes;5;ENSEIGNEMENT;506;Supérieur;;;Public;NANTES;4 Rue Gaëtan Rondeau;02 51 25 00 20;www.conservatoire.nantes.fr;44200;[ 47.2078475523463 , -1.53259290262845]
416;Lycée Général Les Bourdonnières;5;ENSEIGNEMENT;505;Lycée;;;Public;NANTES;6 Rue de la Perrière;02 40 34 02 60;bourdonnieres.paysdelaloire.e-lyco.fr;44200;[ 47.1862714556632 , -1.52005900444297]
417;Institut Régional Formation aux Professions de Santé, E.d'Infirmièr(e)s  Anesthé;5;ENSEIGNEMENT;506;Supérieur;;;Public;NANTES;50 Route de Saint Sébastien;02 40 84 68 01;www.chu-nantes.fr;44200;[ 47.1982444374192 , -1.53138173707224]
418;Maternelle Louise Michel;5;ENSEIGNEMENT;501;Maternelle;;;Public;NANTES;21 Rue Paul Ramadier;02 40 47 75 78;;44200;[ 47.2053416538271 , -1.53118832398368]
419;Elémentaire Ledru Rollin;5;ENSEIGNEMENT;502;Elémentaire;;;Public;NANTES;47 Rue Ledru Rollin;02 40 84 26 62;;44200;[ 47.1921127789088 , -1.53473020302025]
420;Maternelle Sarah Bernhardt;5;ENSEIGNEMENT;501;Maternelle;;;Public;NANTES;38 Rue de la Ripossière;02 40 75 64 94;;44200;[ 47.1930057322291 , -1.53420942808393]
422;Maternelle Elémentaire Notre Dame de la Sagesse;5;ENSEIGNEMENT;503;Primaire;;;Privé;NANTES;16 Rue Frère Louis;02 40 75 66 34;;44200;[ 47.1954576373764 , -1.53872199573899]
423;Collège Saint Jacques;5;ENSEIGNEMENT;504;Collège;;;Privé;NANTES;11 Rue Gabriel Goudy;02 40 75 50 90;;44200;[ 47.1958743812332 , -1.53982251457064]
424;Maternelle Pauline Kergomard;5;ENSEIGNEMENT;501;Maternelle;;;Public;NANTES;4 Rue Pierre Etienne Flandin;02 40 35 23 56;;44200;[ 47.203281419476 , -1.53866149715948]
425;Elémentaire Anatole de Monzie;5;ENSEIGNEMENT;502;Elémentaire;;;Public;NANTES;2 Rue Léon Buerne;02 40 89 17 78;;44200;[ 47.202695868785 , -1.54156980971393]
426;Maternelle Gustave Roch;5;ENSEIGNEMENT;501;Maternelle;;;Public;NANTES;24 Boulevard Gustave Roch;02 40 35 44 30;;44200;[ 47.2048140502147 , -1.55046804632641]
427;Collège Aristide Briand;5;ENSEIGNEMENT;504;Collège;;;Public;NANTES;19 Rue Louis Blanc;02 40 35 05 50;;44200;[ 47.2059786328662 , -1.55425555401982]
428;Elémentaire Garennes;5;ENSEIGNEMENT;502;Elémentaire;;;Public;NANTES;7 Place des Garennes;02 40 73 55 45;;44100;[ 47.2017287218265 , -1.57885466369907]
429;Maternelle Elémentaire Sainte Anne;5;ENSEIGNEMENT;503;Primaire;;;Privé;NANTES;4 Rue Mounet Sully;02 40 69 35 77;;44100;[ 47.2032803389143 , -1.57962381581483]
430;Maternelle Joseph Blanchart;5;ENSEIGNEMENT;501;Maternelle;;;Public;NANTES;94 Rue Joseph Blanchart;02 40 73 33 77;;44100;[ 47.2054214209009 , -1.57814883988811]
431;Collège Sainte Madeleine;5;ENSEIGNEMENT;504;Collège;;;Privé;NANTES;10 Quai Hoche;02 40 20 59 00;;44200;[ 47.2066607877966 , -1.55196917888226]
432;Maternelle Urbain Le Verrier;5;ENSEIGNEMENT;501;Maternelle;;;Public;NANTES;11 Rue Urbain Le Verrier;02 40 50 66 86;;44300;[ 47.2414548752069 , -1.52081969835379]
434;Maternelle Elémentaire Notre Dame des Batignolles;5;ENSEIGNEMENT;503;Primaire;;;Privé;NANTES;184 Boulevard Jules Verne;02 40 49 51 93;;44300;[ 47.2463453769746 , -1.52324696532312]
435;Maternelle Marsauderies;5;ENSEIGNEMENT;501;Maternelle;;;Public;NANTES;9 Rue de la Bertinière;02 40 49 39 56;;44300;[ 47.2429783019405 , -1.53104479929558]
436;Centre de Formation dans l'industrie;5;ENSEIGNEMENT;507;Centre de formation;;;Non Renseigné;NANTES;41 Boulevard des Batignolles;02 51 13 21 52;www.afpiatlantique.asso.fr;44300;[ 47.2537507699605 , -1.52792124344316]
437;Maternelle Batignolles;5;ENSEIGNEMENT;501;Maternelle;;;Public;NANTES;45 Route de Paris;02 40 49 14 84;;44300;[ 47.2518712386716 , -1.51813587169121]
438;Maternelle Beaujoire;5;ENSEIGNEMENT;501;Maternelle;;;Public;NANTES;64 Boulevard Professeur René Auvigné;02 40 49 56 66;;44300;[ 47.257735567603 , -1.51883363505913]
440;Maternelle Louis Pergaud;5;ENSEIGNEMENT;501;Maternelle;;;Public;NANTES;4 Rue Louis Pergaud;02 40 30 11 05;;44300;[ 47.2685545808816 , -1.52030875926764]
441;Maternelle Le Linot;5;ENSEIGNEMENT;501;Maternelle;;;Public;NANTES;45 Rue du Port des Charrettes;02 40 30 22 80;eepu-le-linot-44.ac-nantes.fr;44300;[ 47.267885648747 , -1.52808246513429]
442;Maternelle Elémentaire Saint Yves;5;ENSEIGNEMENT;503;Primaire;;;Privé;NANTES;498 Route de Saint Joseph;02 40 30 24 10;;44300;[ 47.2703235349392 , -1.51845218741903]
444;Primaire Alphonse Braud;5;ENSEIGNEMENT;503;Primaire;;;Public;NANTES;34 Rue Gutenberg;02 40 46 23 08;;44100;[ 47.2020027202868 , -1.58620920480366]
445;Elémentaire Mutualité;5;ENSEIGNEMENT;502;Elémentaire;;;Public;NANTES;4 Rue de la Mutualité;02 40 46 50 76;;44100;[ 47.2054070822712 , -1.58954510248318]
446;Maternelle Fonteny;5;ENSEIGNEMENT;501;Maternelle;;;Public;NANTES;33 Rue du Fonteny;02 40 46 16 70;;44100;[ 47.2047523984114 , -1.59267571996793]
447;Primaire des Réformes;5;ENSEIGNEMENT;503;Primaire;;;Public;NANTES;12 Rue des Réformes;02 40 46 16 12;;44100;[ 47.1995545425208 , -1.59132498272933]
449;Lycée Professionnel Louis Antoine de Bougainville;5;ENSEIGNEMENT;505;Lycée;;;Public;NANTES;2 Rue Eugène Le Roux;02 51 80 24 00;;44100;[ 47.1982474254362 , -1.59280219076573]
450;Maternelle Elémentaire Saint Martin;5;ENSEIGNEMENT;503;Primaire;;;Privé;NANTES;6 Rue Jean Baptiste Legeay;02 40 46 39 98;;44100;[ 47.2004227264891 , -1.59438126175588]
451;Maternelle Alain Fournier;5;ENSEIGNEMENT;501;Maternelle;;;Public;NANTES;87 Rue du Bois Hardy;02 40 46 46 56;;44100;[ 47.2037795863207 , -1.60090274102678]
452;Maternelle Plessis Cellier;5;ENSEIGNEMENT;501;Maternelle;;;Public;NANTES;61 Rue des Alouettes;02 40 58 07 31;;44100;[ 47.2017664637184 , -1.60620393361935]
453;Collège Claude Debussy;5;ENSEIGNEMENT;504;Collège;;;Public;NANTES;1 Rue du Doubs;02 40 43 85 02;;44100;[ 47.203786075958 , -1.60600019919483]
454;Lycée Albert Camus;5;ENSEIGNEMENT;505;Lycée;;;Public;NANTES;11 Rue Etienne Coutan;02 51 80 64 64;perso.wanadoo.fr/lycee.camus;44100;[ 47.2048807789565 , -1.60890897855634]
455;Institut Recherche Enseignement Sup.Tech.Electronique;5;ENSEIGNEMENT;506;Supérieur;;;Public;NANTES;6 Rue Christian Pauc;02 40 68 30 00;www.ireste.fr;44300;[ 47.2820875035582 , -1.51617025410572]
456;Institut Sciences Ingénieur Thermique Energ.Matériaux;5;ENSEIGNEMENT;506;Supérieur;;;Public;NANTES;6 Rue Christian Pauc;02 40 68 31 00;www.isitem.univ-nantes.fr;44300;[ 47.2819496885734 , -1.51441949861741]
458;ONIRIS-Ecole Nationale Vétérinaire Agroalimentaire et de l'Alimentation - site d;5;ENSEIGNEMENT;506;Supérieur;;;Public;NANTES;Route de Gachet;02 40 68 77 77;www.oniris-nantes.fr;44300;[ 47.290275229641 , -1.52533324726691]
459;Maternelle Jean Zay 1;5;ENSEIGNEMENT;501;Maternelle;;;Public;NANTES;19 Rue Yves Kartel;02 40 46 27 01;;44100;[ 47.2087112966535 , -1.60824162882087]
460;Lycée Technique Sacré Coeur;5;ENSEIGNEMENT;505;Lycée;;;Privé;NANTES;3 Rue Francis Portais;02 40 46 49 92;;44100;[ 47.2073378222075 , -1.60911189499045]
462;Maternelle Lucie Aubrac;5;ENSEIGNEMENT;501;Maternelle;;;Public;NANTES;45 Boulevard Jean Moulin;02 40 58 05 43;;44100;[ 47.2081083010119 , -1.59994830834277]
463;Collège Chantenay;5;ENSEIGNEMENT;504;Collège;;;Public;NANTES;62 Rue Amiral Du Chaffault;02 40 46 54 48;perso.wanadoo.fr/college-chantenay.nantes;44100;[ 47.2075917015535 , -1.58442404803705]
464;Maternelle Elémentaire Saint Clair;5;ENSEIGNEMENT;503;Primaire;;;Privé;NANTES;34 Rue Danton;02 40 46 37 43;;44100;[ 47.2132299173126 , -1.58854895693572]
465;Maternelle Elémentaire Sacré Coeur;5;ENSEIGNEMENT;503;Primaire;;;Privé;NANTES;13 Rue Giton;02 40 46 27 13;;44100;[ 47.2127940943443 , -1.5846741806926]
466;Primaire Ampère;5;ENSEIGNEMENT;503;Primaire;;;Public;NANTES;19 Rue Ampère;02 40 46 16 64;;44100;[ 47.2118037043738 , -1.58486691538525]
467;Maternelle Maisdon Pajot;5;ENSEIGNEMENT;501;Maternelle;;;Public;NANTES;22 Rue Maisdon Pajot;02 40 73 92 21;;44100;[ 47.2157184667103 , -1.58495784929838]
468;Elémentaire Fraternité;5;ENSEIGNEMENT;502;Elémentaire;;;Public;NANTES;24 Boulevard de la Fraternité;02 40 46 14 58;;44100;[ 47.2153807423153 , -1.58632258854519]
469;Maternelle Elémentaire Marcel Callo;5;ENSEIGNEMENT;503;Primaire;;;Privé;NANTES;Boulevard de la Solidarité;02 40 46 33 02;;44100;[ 47.2180286777742 , -1.59641255866382]
470;Maternelle Contrie;5;ENSEIGNEMENT;501;Maternelle;;;Public;NANTES;40 Rue Jean Bouin;02 40 46 77 68;;44100;[ 47.2152309898254 , -1.60060783739847]
471;Maternelle Châtaigniers;5;ENSEIGNEMENT;501;Maternelle;;;Public;NANTES;77 Rue de la Contrie;02 40 43 02 04;;44100;[ 47.2201179938899 , -1.60055371425699]
472;Collège La Durantière;5;ENSEIGNEMENT;504;Collège;;;Public;NANTES;17 Rue Baptiste Marcet;02 51 80 60 40;;44100;[ 47.2147863776957 , -1.60370294586255]
475;Maternelle Dervallières Chézine;5;ENSEIGNEMENT;501;Maternelle;;;Public;NANTES;1 Rue Auguste Lepère;02 40 46 57 37;;44100;[ 47.226196442892 , -1.59754708636887]
476;Lycée Carcouët;5;ENSEIGNEMENT;505;Lycée;;;Public;NANTES;115 Boulevard du Massacre;02 40 16 18 18;;44100;[ 47.2300435473292 , -1.59430073093355]
479;Maternelle Port Boyer;5;ENSEIGNEMENT;501;Maternelle;;;Public;NANTES;53 Rue de l'Eraudière;02 40 50 21 60;;44300;[ 47.2395818573862 , -1.54143297405027]
481;Lycée Professionnel Maritime des Pays de Loire;5;ENSEIGNEMENT;505;Lycée;;;Public;NANTES;Rue du Port Boyer;02 40 50 51 01;;44300;[ 47.2408096644989 , -1.54574481120302]
482;Primaire Jonelière;5;ENSEIGNEMENT;503;Primaire;;;Public;NANTES;76 Route de la Jonelière;02 40 74 20 84;;44300;[ 47.2515975275872 , -1.54584324393525]
483;Centre Technique des Industries Mécaniques (CETIM);5;ENSEIGNEMENT;506;Supérieur;;;Public;NANTES;74 Route de la Jonelière;02 40 37 36 35;www.cetim.fr;44300;[ 47.2520310883212 , -1.54721895233287]
485;AUDENCIA Nantes Ecole de Management;5;ENSEIGNEMENT;506;Supérieur;;;Privé;NANTES;8 Route de la Jonelière;02 40 37 34 34;www.escna.fr;44300;[ 47.2468531311837 , -1.55280798759239]
